{
   "type": "FeatureCollection",
   "features": [
  {
    "type": "Feature",
    "geometry": {
       "type": "Point",
       "coordinates":  [ 121.646598,25.199527 ]
    },
    "properties": {
    "監測站":"磺潭",
    "監測站(英文)":"HWANGTAN",
    "監測值(微西弗/時)":0.044,
    "時間":"2025-06-01 02:35",
    "地址":"新北市萬里區員潭路6之2號(金山磺潭社區)",
    "海拔高度(m)":31,
    "距離地面(或平台)高度(m)":"1"
    }
  },
  {
    "type": "Feature",
    "geometry": {
       "type": "Point",
       "coordinates":  [ 121.562988,25.291137 ]
    },
    "properties": {
    "監測站":"石門",
    "監測站(英文)":"SHIHMAN",
    "監測值(微西弗/時)":0.05,
    "時間":"2025-06-01 02:30",
    "地址":"新北市石門區尖鹿村濱海公路旁地面(石門國中)",
    "海拔高度(m)":12,
    "距離地面(或平台)高度(m)":"1"
    }
  },
  {
    "type": "Feature",
    "geometry": {
       "type": "Point",
       "coordinates":  [ 121.515937,25.233671 ]
    },
    "properties": {
    "監測站":"三芝",
    "監測站(英文)":"SHANGI",
    "監測值(微西弗/時)":0.038,
    "時間":"2025-06-01 02:35",
    "地址":"新北市三芝區八連溪附近地面(三芝區共榮社區)",
    "海拔高度(m)":175,
    "距離地面(或平台)高度(m)":"1"
    }
  },
  {
    "type": "Feature",
    "geometry": {
       "type": "Point",
       "coordinates":  [ 121.56578,25.263563 ]
    },
    "properties": {
    "監測站":"石崩山",
    "監測站(英文)":"SHIHBENGSHAN",
    "監測值(微西弗/時)":0.029,
    "時間":"2025-06-01 02:30",
    "地址":"新北市石門區山溪里地面(石門國小山溪分校)",
    "海拔高度(m)":193,
    "距離地面(或平台)高度(m)":"1"
    }
  },
  {
    "type": "Feature",
    "geometry": {
       "type": "Point",
       "coordinates":  [ 121.590904,25.270145 ]
    },
    "properties": {
    "監測站":"茂林",
    "監測站(英文)":"MAOLIN",
    "監測值(微西弗/時)":0.035,
    "時間":"2025-06-01 02:30",
    "地址":"新北市石門區茂林社區地面(台電茂林社區員工宿舍餐廳旁)",
    "海拔高度(m)":151,
    "距離地面(或平台)高度(m)":"1"
    }
  },
  {
    "type": "Feature",
    "geometry": {
       "type": "Point",
       "coordinates":  [ 121.63533,25.221122 ]
    },
    "properties": {
    "監測站":"金山",
    "監測站(英文)":"CHINSHAN",
    "監測值(微西弗/時)":0.042,
    "時間":"2025-06-01 02:35",
    "地址":"新北市金山區仁愛路邊地面(金美國小)",
    "海拔高度(m)":12,
    "距離地面(或平台)高度(m)":"1"
    }
  },
  {
    "type": "Feature",
    "geometry": {
       "type": "Point",
       "coordinates":  [ 121.689033,25.206311 ]
    },
    "properties": {
    "監測站":"野柳",
    "監測站(英文)":"YEHLIU",
    "監測值(微西弗/時)":0.039,
    "時間":"2025-06-01 02:35",
    "地址":"新北市萬里區野柳村港東路(野柳國小旁土地公廟1樓屋頂平台)",
    "海拔高度(m)":9,
    "距離地面(或平台)高度(m)":"1"
    }
  },
  {
    "type": "Feature",
    "geometry": {
       "type": "Point",
       "coordinates":  [ 121.651535,25.208221 ]
    },
    "properties": {
    "監測站":"大鵬",
    "監測站(英文)":"TAPERNG",
    "監測值(微西弗/時)":0.046,
    "時間":"2025-06-01 02:30",
    "地址":"新北市萬里區大鵬村萬里加投路地面(大鵬國小)",
    "海拔高度(m)":15,
    "距離地面(或平台)高度(m)":"1"
    }
  },
  {
    "type": "Feature",
    "geometry": {
       "type": "Point",
       "coordinates":  [ 121.54441,25.162351 ]
    },
    "properties": {
    "監測站":"陽明山",
    "監測站(英文)":"YANGMINSHAN",
    "監測值(微西弗/時)":0.034,
    "時間":"2025-06-01 02:30",
    "地址":"臺北市北投區陽明山竹子湖路2號(竹子湖氣象站2樓屋頂平台) ",
    "海拔高度(m)":613,
    "距離地面(或平台)高度(m)":"1"
    }
  },
  {
    "type": "Feature",
    "geometry": {
       "type": "Point",
       "coordinates":  [ 121.638763,25.167714 ]
    },
    "properties": {
    "監測站":"大坪",
    "監測站(英文)":"TAPING",
    "監測值(微西弗/時)":0.068,
    "時間":"2025-06-01 02:30",
    "地址":"新北市萬里區雙興村大坪路地面(大坪國小)",
    "海拔高度(m)":353,
    "距離地面(或平台)高度(m)":"1"
    }
  },
  {
    "type": "Feature",
    "geometry": {
       "type": "Point",
       "coordinates":  [ 121.688049,25.176182 ]
    },
    "properties": {
    "監測站":"萬里",
    "監測站(英文)":"WANLI",
    "監測值(微西弗/時)":0.048,
    "時間":"2025-06-01 02:30",
    "地址":"新北市萬里區瑪鋉路18號地面(萬里國小)",
    "海拔高度(m)":11,
    "距離地面(或平台)高度(m)":"1"
    }
  },
  {
    "type": "Feature",
    "geometry": {
       "type": "Point",
       "coordinates":  [ 121.524906,24.959816 ]
    },
    "properties": {
    "監測站":"新店",
    "監測站(英文)":"XINDIAN",
    "監測值(微西弗/時)":0.05,
    "時間":"2025-06-01 02:30",
    "地址":"新北市新店區莒光路29號",
    "海拔高度(m)":29,
    "距離地面(或平台)高度(m)":"1"
    }
  },
  {
    "type": "Feature",
    "geometry": {
       "type": "Point",
       "coordinates":  [ 121.923811,25.047576 ]
    },
    "properties": {
    "監測站":"澳底",
    "監測站(英文)":"AODI",
    "監測值(微西弗/時)":0.042,
    "時間":"2025-06-01 02:35",
    "地址":"新北市貢寮區仁里村研海路62號地面(核四廠觀測坪)",
    "海拔高度(m)":13,
    "距離地面(或平台)高度(m)":"1"
    }
  },
  {
    "type": "Feature",
    "geometry": {
       "type": "Point",
       "coordinates":  [ 121.919736,25.010583 ]
    },
    "properties": {
    "監測站":"貢寮",
    "監測站(英文)":"GONGLIAO",
    "監測值(微西弗/時)":0.042,
    "時間":"2025-06-01 02:30",
    "地址":"新北市貢寮區?玉路下?西街20號地面(貢寮自來水廠)",
    "海拔高度(m)":19,
    "距離地面(或平台)高度(m)":"1"
    }
  },
  {
    "type": "Feature",
    "geometry": {
       "type": "Point",
       "coordinates":  [ 121.862747,25.03516 ]
    },
    "properties": {
    "監測站":"雙溪",
    "監測站(英文)":"SHUANGSI",
    "監測值(微西弗/時)":0.056,
    "時間":"2025-06-01 02:30",
    "地址":"新北市雙溪區梅竹蹊3號地面(雙溪高中)",
    "海拔高度(m)":38,
    "距離地面(或平台)高度(m)":"1"
    }
  }
]
}