{
	"type": "FeatureCollection",
	"features": [
		{
			"type": "Feature",
			"geometry": {
				"type": "Point",
				"coordinates": [121.544547, 25.162078]
			},
			"properties": {
				"StationName": "陽明山",
				"StationId": "466930",
				"Maintainer": "中央氣象署",
				"DateTime": "2025-05-31T19:30:00+08:00",
				"Altitude": "607.1",
				"CountyName": "臺北市",
				"TownName": "北投區",
				"Precipitation": "0.0"
			}
		},
		{
			"type": "Feature",
			"geometry": {
				"type": "Point",
				"coordinates": [121.529731, 25.182586]
			},
			"properties": {
				"StationName": "鞍部",
				"StationId": "466910",
				"Maintainer": "中央氣象署",
				"DateTime": "2025-05-31T19:30:00+08:00",
				"Altitude": "837.6",
				"CountyName": "臺北市",
				"TownName": "北投區",
				"Precipitation": "0.0"
			}
		},
		{
			"type": "Feature",
			"geometry": {
				"type": "Point",
				"coordinates": [121.514853, 25.037658]
			},
			"properties": {
				"StationName": "臺北",
				"StationId": "466920",
				"Maintainer": "中央氣象署",
				"DateTime": "2025-05-31T19:30:00+08:00",
				"Altitude": "6.3",
				"CountyName": "臺北市",
				"TownName": "中正區",
				"Precipitation": "0.0"
			}
		},
		{
			"type": "Feature",
			"geometry": {
				"type": "Point",
				"coordinates": [121.469331, 25.133486]
			},
			"properties": {
				"StationName": "關渡",
				"StationId": "C1AC50",
				"Maintainer": "中央氣象署",
				"DateTime": "2025-05-31T19:30:00+08:00",
				"Altitude": "111.0",
				"CountyName": "臺北市",
				"TownName": "北投區",
				"Precipitation": "0.0"
			}
		},
		{
			"type": "Feature",
			"geometry": {
				"type": "Point",
				"coordinates": [121.575728, 25.00235]
			},
			"properties": {
				"StationName": "文山",
				"StationId": "C0AC80",
				"Maintainer": "中央氣象署",
				"DateTime": "2025-05-31T19:30:00+08:00",
				"Altitude": "40.0",
				"CountyName": "臺北市",
				"TownName": "文山區",
				"Precipitation": "0.0"
			}
		},
		{
			"type": "Feature",
			"geometry": {
				"type": "Point",
				"coordinates": [121.469681, 25.109508]
			},
			"properties": {
				"StationName": "社子",
				"StationId": "C0A980",
				"Maintainer": "中央氣象署",
				"DateTime": "2025-05-31T19:30:00+08:00",
				"Altitude": "11.0",
				"CountyName": "臺北市",
				"TownName": "士林區",
				"Precipitation": "0.0"
			}
		},
		{
			"type": "Feature",
			"geometry": {
				"type": "Point",
				"coordinates": [121.537169, 25.117494]
			},
			"properties": {
				"StationName": "天母",
				"StationId": "C0A9C0",
				"Maintainer": "中央氣象署",
				"DateTime": "2025-05-31T19:30:00+08:00",
				"Altitude": "35.0",
				"CountyName": "臺北市",
				"TownName": "士林區",
				"Precipitation": "0.0"
			}
		},
		{
			"type": "Feature",
			"geometry": {
				"type": "Point",
				"coordinates": [121.57545, 25.079422]
			},
			"properties": {
				"StationName": "內湖",
				"StationId": "C0A9F0",
				"Maintainer": "中央氣象署",
				"DateTime": "2025-05-31T19:30:00+08:00",
				"Altitude": "35.0",
				"CountyName": "臺北市",
				"TownName": "內湖區",
				"Precipitation": "0.0"
			}
		},
		{
			"type": "Feature",
			"geometry": {
				"type": "Point",
				"coordinates": [121.564597, 25.037822]
			},
			"properties": {
				"StationName": "信義",
				"StationId": "C0AC70",
				"Maintainer": "中央氣象署",
				"DateTime": "2025-05-31T19:30:00+08:00",
				"Altitude": "71.0",
				"CountyName": "臺北市",
				"TownName": "信義區",
				"Precipitation": "0.0"
			}
		},
		{
			"type": "Feature",
			"geometry": {
				"type": "Point",
				"coordinates": [121.522408, 25.175675]
			},
			"properties": {
				"StationName": "大屯山",
				"StationId": "C0AC40",
				"Maintainer": "中央氣象署",
				"DateTime": "2025-05-31T19:30:00+08:00",
				"Altitude": "1079.0",
				"CountyName": "臺北市",
				"TownName": "北投區",
				"Precipitation": "0.0"
			}
		},
		{
			"type": "Feature",
			"geometry": {
				"type": "Point",
				"coordinates": [121.538915, 25.168595]
			},
			"properties": {
				"StationName": "湖田國小",
				"StationId": "A1A9S0",
				"Maintainer": "臺北市政府工務局水利工程處",
				"DateTime": "2025-05-31T19:30:00+08:00",
				"Altitude": "699.0",
				"CountyName": "臺北市",
				"TownName": "北投區",
				"Precipitation": "0.0"
			}
		},
		{
			"type": "Feature",
			"geometry": {
				"type": "Point",
				"coordinates": [121.503915, 25.154997]
			},
			"properties": {
				"StationName": "大屯國小",
				"StationId": "A1A9T0",
				"Maintainer": "臺北市政府工務局水利工程處",
				"DateTime": "2025-05-31T19:30:00+08:00",
				"Altitude": "318.0",
				"CountyName": "臺北市",
				"TownName": "北投區",
				"Precipitation": "0.0"
			}
		},
		{
			"type": "Feature",
			"geometry": {
				"type": "Point",
				"coordinates": [121.476914, 25.134398]
			},
			"properties": {
				"StationName": "桃源國中",
				"StationId": "A1A9U0",
				"Maintainer": "臺北市政府工務局水利工程處",
				"DateTime": "2025-05-31T19:30:00+08:00",
				"Altitude": "28.0",
				"CountyName": "臺北市",
				"TownName": "北投區",
				"Precipitation": "0.0"
			}
		},
		{
			"type": "Feature",
			"geometry": {
				"type": "Point",
				"coordinates": [121.498913, 25.133897]
			},
			"properties": {
				"StationName": "北投國小",
				"StationId": "A1A9V0",
				"Maintainer": "臺北市政府工務局水利工程處",
				"DateTime": "2025-05-31T19:30:00+08:00",
				"Altitude": "37.0",
				"CountyName": "臺北市",
				"TownName": "北投區",
				"Precipitation": "0.0"
			}
		},
		{
			"type": "Feature",
			"geometry": {
				"type": "Point",
				"coordinates": [121.51671, 25.092496]
			},
			"properties": {
				"StationName": "陽明高中",
				"StationId": "A1A9W0",
				"Maintainer": "臺北市政府工務局水利工程處",
				"DateTime": "2025-05-31T19:30:00+08:00",
				"Altitude": "18.0",
				"CountyName": "臺北市",
				"TownName": "士林區",
				"Precipitation": "0.0"
			}
		},
		{
			"type": "Feature",
			"geometry": {
				"type": "Point",
				"coordinates": [121.511708, 25.061696]
			},
			"properties": {
				"StationName": "太平國小",
				"StationId": "A1A9X0",
				"Maintainer": "臺北市政府工務局水利工程處",
				"DateTime": "2025-05-31T19:30:00+08:00",
				"Altitude": "20.0",
				"CountyName": "臺北市",
				"TownName": "大同區",
				"Precipitation": "0.0"
			}
		},
		{
			"type": "Feature",
			"geometry": {
				"type": "Point",
				"coordinates": [121.566707, 25.059693]
			},
			"properties": {
				"StationName": "民生國中",
				"StationId": "A1A9Y0",
				"Maintainer": "臺北市政府工務局水利工程處",
				"DateTime": "2025-05-31T19:30:00+08:00",
				"Altitude": "28.0",
				"CountyName": "臺北市",
				"TownName": "松山區",
				"Precipitation": "0.0"
			}
		},
		{
			"type": "Feature",
			"geometry": {
				"type": "Point",
				"coordinates": [121.521906, 25.031696]
			},
			"properties": {
				"StationName": "中正國中",
				"StationId": "A1A9Z0",
				"Maintainer": "臺北市政府工務局水利工程處",
				"DateTime": "2025-05-31T19:30:00+08:00",
				"Altitude": "31.0",
				"CountyName": "臺北市",
				"TownName": "中正區",
				"Precipitation": "0.0"
			}
		},
		{
			"type": "Feature",
			"geometry": {
				"type": "Point",
				"coordinates": [121.558106, 25.029194]
			},
			"properties": {
				"StationName": "三興國小",
				"StationId": "A1AA00",
				"Maintainer": "臺北市政府工務局水利工程處",
				"DateTime": "2025-05-31T19:30:00+08:00",
				"Altitude": "28.0",
				"CountyName": "臺北市",
				"TownName": "信義區",
				"Precipitation": "0.0"
			}
		},
		{
			"type": "Feature",
			"geometry": {
				"type": "Point",
				"coordinates": [121.545613, 25.131395]
			},
			"properties": {
				"StationName": "格致國中",
				"StationId": "A1AA10",
				"Maintainer": "臺北市政府工務局水利工程處",
				"DateTime": "2025-05-31T19:30:00+08:00",
				"Altitude": "394.0",
				"CountyName": "臺北市",
				"TownName": "士林區",
				"Precipitation": "0.0"
			}
		},
		{
			"type": "Feature",
			"geometry": {
				"type": "Point",
				"coordinates": [121.576412, 25.129193]
			},
			"properties": {
				"StationName": "平等國小",
				"StationId": "A1AA20",
				"Maintainer": "臺北市政府工務局水利工程處",
				"DateTime": "2025-05-31T19:30:00+08:00",
				"Altitude": "427.0",
				"CountyName": "臺北市",
				"TownName": "士林區",
				"Precipitation": "0.0"
			}
		},
		{
			"type": "Feature",
			"geometry": {
				"type": "Point",
				"coordinates": [121.555611, 25.103294]
			},
			"properties": {
				"StationName": "至善國中",
				"StationId": "A1AA30",
				"Maintainer": "臺北市政府工務局水利工程處",
				"DateTime": "2025-05-31T19:30:00+08:00",
				"Altitude": "53.0",
				"CountyName": "臺北市",
				"TownName": "士林區",
				"Precipitation": "410.0"
			}
		},
		{
			"type": "Feature",
			"geometry": {
				"type": "Point",
				"coordinates": [121.591709, 25.084692]
			},
			"properties": {
				"StationName": "碧湖國小",
				"StationId": "A1AA40",
				"Maintainer": "臺北市政府工務局水利工程處",
				"DateTime": "2025-05-31T19:30:00+08:00",
				"Altitude": "33.0",
				"CountyName": "臺北市",
				"TownName": "內湖區",
				"Precipitation": "0.0"
			}
		},
		{
			"type": "Feature",
			"geometry": {
				"type": "Point",
				"coordinates": [121.615007, 25.069191]
			},
			"properties": {
				"StationName": "東湖國小",
				"StationId": "A1AA50",
				"Maintainer": "臺北市政府工務局水利工程處",
				"DateTime": "2025-05-31T19:30:00+08:00",
				"Altitude": "34.0",
				"CountyName": "臺北市",
				"TownName": "內湖區",
				"Precipitation": "0.0"
			}
		},
		{
			"type": "Feature",
			"geometry": {
				"type": "Point",
				"coordinates": [121.585606, 25.037192]
			},
			"properties": {
				"StationName": "留公國中",
				"StationId": "A1AA60",
				"Maintainer": "臺北市政府工務局水利工程處",
				"DateTime": "2025-05-31T19:30:00+08:00",
				"Altitude": "32.0",
				"CountyName": "臺北市",
				"TownName": "信義區",
				"Precipitation": "0.0"
			}
		},
		{
			"type": "Feature",
			"geometry": {
				"type": "Point",
				"coordinates": [121.619405, 25.039991]
			},
			"properties": {
				"StationName": "舊莊國小",
				"StationId": "A1AA70",
				"Maintainer": "臺北市政府工務局水利工程處",
				"DateTime": "2025-05-31T19:30:00+08:00",
				"Altitude": "38.0",
				"CountyName": "臺北市",
				"TownName": "南港區",
				"Precipitation": "0.0"
			}
		},
		{
			"type": "Feature",
			"geometry": {
				"type": "Point",
				"coordinates": [121.556406, 25.038894]
			},
			"properties": {
				"StationName": "市政中心",
				"StationId": "A1AA80",
				"Maintainer": "臺北市政府工務局水利工程處",
				"DateTime": "2025-05-31T19:30:00+08:00",
				"Altitude": "83.0",
				"CountyName": "臺北市",
				"TownName": "信義區",
				"Precipitation": "0.0"
			}
		},
		{
			"type": "Feature",
			"geometry": {
				"type": "Point",
				"coordinates": [121.575304, 25.002193]
			},
			"properties": {
				"StationName": "博嘉國小",
				"StationId": "A1AA90",
				"Maintainer": "臺北市政府工務局水利工程處",
				"DateTime": "2025-05-31T19:30:00+08:00",
				"Altitude": "53.0",
				"CountyName": "臺北市",
				"TownName": "文山區",
				"Precipitation": "0.0"
			}
		},
		{
			"type": "Feature",
			"geometry": {
				"type": "Point",
				"coordinates": [121.577502, 24.984393]
			},
			"properties": {
				"StationName": "北政國中",
				"StationId": "A1AB00",
				"Maintainer": "臺北市政府工務局水利工程處",
				"DateTime": "2025-05-31T19:30:00+08:00",
				"Altitude": "39.0",
				"CountyName": "臺北市",
				"TownName": "文山區",
				"Precipitation": "0.0"
			}
		},
		{
			"type": "Feature",
			"geometry": {
				"type": "Point",
				"coordinates": [121.545303, 24.986395]
			},
			"properties": {
				"StationName": "埤腹",
				"StationId": "A1AB10",
				"Maintainer": "臺北市政府工務局水利工程處",
				"DateTime": "2025-05-31T19:30:00+08:00",
				"Altitude": "42.0",
				"CountyName": "臺北市",
				"TownName": "文山區",
				"Precipitation": "0.0"
			}
		},
		{
			"type": "Feature",
			"geometry": {
				"type": "Point",
				"coordinates": [121.490307, 25.030298]
			},
			"properties": {
				"StationName": "雙園",
				"StationId": "A1AB20",
				"Maintainer": "臺北市政府工務局水利工程處",
				"DateTime": "2025-05-31T19:30:00+08:00",
				"Altitude": "31.0",
				"CountyName": "臺北市",
				"TownName": "萬華區",
				"Precipitation": "0.0"
			}
		},
		{
			"type": "Feature",
			"geometry": {
				"type": "Point",
				"coordinates": [121.474712, 25.105298]
			},
			"properties": {
				"StationName": "中洲",
				"StationId": "A1AB30",
				"Maintainer": "臺北市政府工務局水利工程處",
				"DateTime": "2025-05-31T19:30:00+08:00",
				"Altitude": "8.0",
				"CountyName": "臺北市",
				"TownName": "士林區",
				"Precipitation": "0.0"
			}
		},
		{
			"type": "Feature",
			"geometry": {
				"type": "Point",
				"coordinates": [121.582507, 25.052193]
			},
			"properties": {
				"StationName": "玉成",
				"StationId": "A1AB40",
				"Maintainer": "臺北市政府工務局水利工程處",
				"DateTime": "2025-05-31T19:30:00+08:00",
				"Altitude": "27.0",
				"CountyName": "臺北市",
				"TownName": "南港區",
				"Precipitation": "0.0"
			}
		},
		{
			"type": "Feature",
			"geometry": {
				"type": "Point",
				"coordinates": [121.528909, 25.072195]
			},
			"properties": {
				"StationName": "建國",
				"StationId": "A1AB50",
				"Maintainer": "臺北市政府工務局水利工程處",
				"DateTime": "2025-05-31T19:30:00+08:00",
				"Altitude": "25.0",
				"CountyName": "臺北市",
				"TownName": "中山區",
				"Precipitation": "0.0"
			}
		},
		{
			"type": "Feature",
			"geometry": {
				"type": "Point",
				"coordinates": [121.528911, 25.099395]
			},
			"properties": {
				"StationName": "福德",
				"StationId": "A1AB60",
				"Maintainer": "臺北市政府工務局水利工程處",
				"DateTime": "2025-05-31T19:30:00+08:00",
				"Altitude": "14.0",
				"CountyName": "臺北市",
				"TownName": "士林區",
				"Precipitation": "0.0"
			}
		},
		{
			"type": "Feature",
			"geometry": {
				"type": "Point",
				"coordinates": [121.503113, 25.123897]
			},
			"properties": {
				"StationName": "奇岩",
				"StationId": "A1AB70",
				"Maintainer": "臺北市政府工務局水利工程處",
				"DateTime": "2025-05-31T19:30:00+08:00",
				"Altitude": "28.0",
				"CountyName": "臺北市",
				"TownName": "北投區",
				"Precipitation": "0.0"
			}
		},
		{
			"type": "Feature",
			"geometry": {
				"type": "Point",
				"coordinates": [121.569411, 25.113593]
			},
			"properties": {
				"StationName": "雙溪",
				"StationId": "A1AB80",
				"Maintainer": "臺北市政府工務局水利工程處",
				"DateTime": "2025-05-31T19:30:00+08:00",
				"Altitude": "127.0",
				"CountyName": "臺北市",
				"TownName": "士林區",
				"Precipitation": "0.0"
			}
		},
		{
			"type": "Feature",
			"geometry": {
				"type": "Point",
				"coordinates": [121.516401, 25.021931]
			},
			"properties": {
				"StationName": "中正橋",
				"StationId": "01A410",
				"Maintainer": "水利署第10河川分署",
				"DateTime": "2025-05-31T19:30:00+08:00",
				"Altitude": "15.0",
				"CountyName": "臺北市",
				"TownName": "中正區",
				"Precipitation": "0.0"
			}
		},
		{
			"type": "Feature",
			"geometry": {
				"type": "Point",
				"coordinates": [121.54405, 25.162299]
			},
			"properties": {
				"StationName": "竹子湖",
				"StationId": "01A420",
				"Maintainer": "水利署第10河川分署",
				"DateTime": "2025-05-31T19:30:00+08:00",
				"Altitude": "600.0",
				"CountyName": "臺北市",
				"TownName": "士林區",
				"Precipitation": "0.0"
			}
		},
		{
			"type": "Feature",
			"geometry": {
				"type": "Point",
				"coordinates": [121.624705, 25.03399]
			},
			"properties": {
				"StationName": "舊莊里",
				"StationId": "A1AC50",
				"Maintainer": "臺北市政府工務局大地工程處",
				"DateTime": "2025-05-31T19:30:00+08:00",
				"Altitude": "47.0",
				"CountyName": "臺北市",
				"TownName": "南港區",
				"Precipitation": "0.0"
			}
		},
		{
			"type": "Feature",
			"geometry": {
				"type": "Point",
				"coordinates": [121.663304, 25.028388]
			},
			"properties": {
				"StationName": "茶製場",
				"StationId": "A1AD70",
				"Maintainer": "臺北市政府工務局大地工程處",
				"DateTime": "2025-05-31T19:30:00+08:00",
				"Altitude": "375.0",
				"CountyName": "臺北市",
				"TownName": "南港區",
				"Precipitation": "0.0"
			}
		},
		{
			"type": "Feature",
			"geometry": {
				"type": "Point",
				"coordinates": [121.611605, 25.032491]
			},
			"properties": {
				"StationName": "九如里",
				"StationId": "A1AC60",
				"Maintainer": "臺北市政府工務局大地工程處",
				"DateTime": "2025-05-31T19:30:00+08:00",
				"Altitude": "44.0",
				"CountyName": "臺北市",
				"TownName": "南港區",
				"Precipitation": "0.0"
			}
		},
		{
			"type": "Feature",
			"geometry": {
				"type": "Point",
				"coordinates": [121.613109, 25.087591]
			},
			"properties": {
				"StationName": "安泰里",
				"StationId": "A1AD30",
				"Maintainer": "臺北市政府工務局大地工程處",
				"DateTime": "2025-05-31T19:30:00+08:00",
				"Altitude": "97.0",
				"CountyName": "臺北市",
				"TownName": "內湖區",
				"Precipitation": "0.0"
			}
		},
		{
			"type": "Feature",
			"geometry": {
				"type": "Point",
				"coordinates": [121.588912, 25.136892]
			},
			"properties": {
				"StationName": "溪山里",
				"StationId": "A1AC90",
				"Maintainer": "臺北市政府工務局大地工程處",
				"DateTime": "2025-05-31T19:30:00+08:00",
				"Altitude": "453.0",
				"CountyName": "臺北市",
				"TownName": "士林區",
				"Precipitation": "0.0"
			}
		},
		{
			"type": "Feature",
			"geometry": {
				"type": "Point",
				"coordinates": [121.565711, 25.113693]
			},
			"properties": {
				"StationName": "明德樂園",
				"StationId": "A1AC80",
				"Maintainer": "臺北市政府工務局大地工程處",
				"DateTime": "2025-05-31T19:30:00+08:00",
				"Altitude": "111.0",
				"CountyName": "臺北市",
				"TownName": "士林區",
				"Precipitation": "0.0"
			}
		},
		{
			"type": "Feature",
			"geometry": {
				"type": "Point",
				"coordinates": [121.566013, 25.143993]
			},
			"properties": {
				"StationName": "菁山里",
				"StationId": "A1AD00",
				"Maintainer": "臺北市政府工務局大地工程處",
				"DateTime": "2025-05-31T19:30:00+08:00",
				"Altitude": "489.0",
				"CountyName": "臺北市",
				"TownName": "士林區",
				"Precipitation": "0.0"
			}
		},
		{
			"type": "Feature",
			"geometry": {
				"type": "Point",
				"coordinates": [121.568014, 25.163293]
			},
			"properties": {
				"StationName": "擎天崗",
				"StationId": "A1AD10",
				"Maintainer": "臺北市政府工務局大地工程處",
				"DateTime": "2025-05-31T19:30:00+08:00",
				"Altitude": "769.0",
				"CountyName": "臺北市",
				"TownName": "士林區",
				"Precipitation": "0.0"
			}
		},
		{
			"type": "Feature",
			"geometry": {
				"type": "Point",
				"coordinates": [121.489815, 25.155898]
			},
			"properties": {
				"StationName": "貴子坑",
				"StationId": "A1AD80",
				"Maintainer": "臺北市政府工務局大地工程處",
				"DateTime": "2025-05-31T19:30:00+08:00",
				"Altitude": "278.0",
				"CountyName": "臺北市",
				"TownName": "北投區",
				"Precipitation": "0.0"
			}
		},
		{
			"type": "Feature",
			"geometry": {
				"type": "Point",
				"coordinates": [121.574405, 25.017093]
			},
			"properties": {
				"StationName": "挹翠山莊",
				"StationId": "A1AC70",
				"Maintainer": "臺北市政府工務局大地工程處",
				"DateTime": "2025-05-31T19:30:00+08:00",
				"Altitude": "118.0",
				"CountyName": "臺北市",
				"TownName": "信義區",
				"Precipitation": "0.0"
			}
		},
		{
			"type": "Feature",
			"geometry": {
				"type": "Point",
				"coordinates": [121.580302, 24.981493]
			},
			"properties": {
				"StationName": "指南里",
				"StationId": "A1AC40",
				"Maintainer": "臺北市政府工務局大地工程處",
				"DateTime": "2025-05-31T19:30:00+08:00",
				"Altitude": "103.0",
				"CountyName": "臺北市",
				"TownName": "文山區",
				"Precipitation": "0.0"
			}
		},
		{
			"type": "Feature",
			"geometry": {
				"type": "Point",
				"coordinates": [121.595301, 24.968892]
			},
			"properties": {
				"StationName": "貓空",
				"StationId": "A1AD60",
				"Maintainer": "臺北市政府工務局大地工程處",
				"DateTime": "2025-05-31T19:30:00+08:00",
				"Altitude": "317.0",
				"CountyName": "臺北市",
				"TownName": "文山區",
				"Precipitation": "0.0"
			}
		},
		{
			"type": "Feature",
			"geometry": {
				"type": "Point",
				"coordinates": [121.582905, 25.029293]
			},
			"properties": {
				"StationName": "四獸山",
				"StationId": "A1AG40",
				"Maintainer": "臺北市政府工務局大地工程處",
				"DateTime": "2025-05-31T19:30:00+08:00",
				"Altitude": "315.0",
				"CountyName": "臺北市",
				"TownName": "信義區",
				"Precipitation": "0.0"
			}
		},
		{
			"type": "Feature",
			"geometry": {
				"type": "Point",
				"coordinates": [121.554305, 25.016894]
			},
			"properties": {
				"StationName": "福州山",
				"StationId": "A1AG60",
				"Maintainer": "臺北市政府工務局大地工程處",
				"DateTime": "2025-05-31T19:30:00+08:00",
				"Altitude": "122.0",
				"CountyName": "臺北市",
				"TownName": "大安區",
				"Precipitation": "0.0"
			}
		},
		{
			"type": "Feature",
			"geometry": {
				"type": "Point",
				"coordinates": [121.56991, 25.094893]
			},
			"properties": {
				"StationName": "金面山",
				"StationId": "A1AG80",
				"Maintainer": "臺北市政府工務局大地工程處",
				"DateTime": "2025-05-31T19:30:00+08:00",
				"Altitude": "80.0",
				"CountyName": "臺北市",
				"TownName": "內湖區",
				"Precipitation": "0.0"
			}
		},
		{
			"type": "Feature",
			"geometry": {
				"type": "Point",
				"coordinates": [121.604109, 25.096391]
			},
			"properties": {
				"StationName": "大湖里",
				"StationId": "A1AG20",
				"Maintainer": "臺北市政府工務局大地工程處",
				"DateTime": "2025-05-31T19:30:00+08:00",
				"Altitude": "181.0",
				"CountyName": "臺北市",
				"TownName": "內湖區",
				"Precipitation": "0.0"
			}
		},
		{
			"type": "Feature",
			"geometry": {
				"type": "Point",
				"coordinates": [121.483915, 25.147998]
			},
			"properties": {
				"StationName": "稻香里",
				"StationId": "A1AG30",
				"Maintainer": "臺北市政府工務局大地工程處",
				"DateTime": "2025-05-31T19:30:00+08:00",
				"Altitude": "160.0",
				"CountyName": "臺北市",
				"TownName": "北投區",
				"Precipitation": "0.0"
			}
		},
		{
			"type": "Feature",
			"geometry": {
				"type": "Point",
				"coordinates": [121.52841, 25.083096]
			},
			"properties": {
				"StationName": "劍潭山",
				"StationId": "A1AG50",
				"Maintainer": "臺北市政府工務局大地工程處",
				"DateTime": "2025-05-31T19:30:00+08:00",
				"Altitude": "143.0",
				"CountyName": "臺北市",
				"TownName": "中山區",
				"Precipitation": "0.0"
			}
		},
		{
			"type": "Feature",
			"geometry": {
				"type": "Point",
				"coordinates": [121.543203, 24.989295]
			},
			"properties": {
				"StationName": "仙跡岩",
				"StationId": "A1AG70",
				"Maintainer": "臺北市政府工務局大地工程處",
				"DateTime": "2025-05-31T19:30:00+08:00",
				"Altitude": "81.0",
				"CountyName": "臺北市",
				"TownName": "文山區",
				"Precipitation": "0.0"
			}
		},
		{
			"type": "Feature",
			"geometry": {
				"type": "Point",
				"coordinates": [121.577086, 25.129142]
			},
			"properties": {
				"StationName": "平等",
				"StationId": "C0AH40",
				"Maintainer": "中央氣象署",
				"DateTime": "2025-05-31T19:30:00+08:00",
				"Altitude": "426.0",
				"CountyName": "臺北市",
				"TownName": "士林區",
				"Precipitation": "0.0"
			}
		},
		{
			"type": "Feature",
			"geometry": {
				"type": "Point",
				"coordinates": [121.550428, 25.048711]
			},
			"properties": {
				"StationName": "松山",
				"StationId": "C0AH70",
				"Maintainer": "中央氣象署",
				"DateTime": "2025-05-31T19:30:00+08:00",
				"Altitude": "34.0",
				"CountyName": "臺北市",
				"TownName": "松山區",
				"Precipitation": "0.0"
			}
		},
		{
			"type": "Feature",
			"geometry": {
				"type": "Point",
				"coordinates": [121.53987, 25.13605]
			},
			"properties": {
				"StationName": "文化大學",
				"StationId": "A0A460",
				"Maintainer": "中央氣象署",
				"DateTime": "2025-05-31T19:30:00+08:00",
				"Altitude": "424.4",
				"CountyName": "臺北市",
				"TownName": "士林區",
				"Precipitation": "0.0"
			}
		},
		{
			"type": "Feature",
			"geometry": {
				"type": "Point",
				"coordinates": [121.539416, 25.014278]
			},
			"properties": {
				"StationName": "臺灣大學",
				"StationId": "A0A010",
				"Maintainer": "中央氣象署",
				"DateTime": "2025-05-31T19:30:00+08:00",
				"Altitude": "17.0",
				"CountyName": "臺北市",
				"TownName": "大安區",
				"Precipitation": "0.0"
			}
		},
		{
			"type": "Feature",
			"geometry": {
				"type": "Point",
				"coordinates": [121.513167, 25.115597]
			},
			"properties": {
				"StationName": "石牌",
				"StationId": "C0AI40",
				"Maintainer": "中央氣象署",
				"DateTime": "2025-05-31T19:30:00+08:00",
				"Altitude": "37.0",
				"CountyName": "臺北市",
				"TownName": "北投區",
				"Precipitation": "0.0"
			}
		},
		{
			"type": "Feature",
			"geometry": {
				"type": "Point",
				"coordinates": [121.492, 25.11575]
			},
			"properties": {
				"StationName": "台農院關渡站",
				"StationId": "G2AI50",
				"Maintainer": "中央氣象署",
				"DateTime": "2025-05-31T19:30:00+08:00",
				"Altitude": "9.0",
				"CountyName": "臺北市",
				"TownName": "北投區",
				"Precipitation": "0.0"
			}
		},
		{
			"type": "Feature",
			"geometry": {
				"type": "Point",
				"coordinates": [121.619664, 25.034164]
			},
			"properties": {
				"StationName": "國三N016K",
				"StationId": "C1AI50",
				"Maintainer": "中央氣象署",
				"DateTime": "2025-05-31T19:30:00+08:00",
				"Altitude": "64.0",
				"CountyName": "臺北市",
				"TownName": "南港區",
				"Precipitation": "0.0"
			}
		},
		{
			"type": "Feature",
			"geometry": {
				"type": "Point",
				"coordinates": [121.5975, 25.00194]
			},
			"properties": {
				"StationName": "國三甲005K",
				"StationId": "CAA090",
				"Maintainer": "中央氣象署",
				"DateTime": "2025-05-31T19:30:00+08:00",
				"Altitude": "60.0",
				"CountyName": "臺北市",
				"TownName": "文山區",
				"Precipitation": "0.0"
			}
		},
		{
			"type": "Feature",
			"geometry": {
				"type": "Point",
				"coordinates": [121.6158, 25.03306]
			},
			"properties": {
				"StationName": "國三S016K",
				"StationId": "CAA040",
				"Maintainer": "中央氣象署",
				"DateTime": "2025-05-31T19:30:00+08:00",
				"Altitude": "71.0",
				"CountyName": "臺北市",
				"TownName": "南港區",
				"Precipitation": "0.0"
			}
		},
		{
			"type": "Feature",
			"geometry": {
				"type": "Point",
				"coordinates": [121.516506, 25.096356]
			},
			"properties": {
				"StationName": "科教館",
				"StationId": "C0A770",
				"Maintainer": "中央氣象署",
				"DateTime": "2025-05-31T19:30:00+08:00",
				"Altitude": "60.0",
				"CountyName": "臺北市",
				"TownName": "士林區",
				"Precipitation": "0.0"
			}
		}
	]
}
