{"type":"FeatureCollection","features":[{"type":"Feature","properties":{"area_desc":"臺北市地區","county_name":"臺北市","station_name":"臺北市","station_id":"TAP","longitude":"121.514","latitude":"25.038","epicenter_distance":"176.46","back_azimuth":"108.13","seismic_intensity":"1","pga_v":"1.05","pga_ns":"0.88","pga_ew":"1.02","pga_int_scale":"1.02","pgv_v":"0.04","pgv_ns":"0.07","pgv_ew":"0.12","pgv_int_scale":"0.12","wave_image_uri":"https://scweb.cwa.gov.tw/webdata/drawTrace/outcome/2025/2025082/1-TAP.gif"},"geometry":{"type":"Point","coordinates":[121.514,25.038]}},{"type":"Feature","properties":{"area_desc":"臺北市地區","county_name":"臺北市","station_name":"木柵","station_id":"TWA","longitude":"121.592","latitude":"24.978","epicenter_distance":"47.54","back_azimuth":"152.57","seismic_intensity":"2","pga_v":"2.81","pga_ns":"5.34","pga_ew":"5.79","pga_int_scale":"6.86","pgv_v":"0.16","pgv_ns":"0.28","pgv_ew":"0.36","pgv_int_scale":"0.38","wave_image_uri":"https://scweb.cwa.gov.tw/webdata/drawTrace/outcome/2025/2025083/2-TWA.gif"},"geometry":{"type":"Point","coordinates":[121.592,24.978]}},{"type":"Feature","properties":{"area_desc":"臺北市地區","county_name":"臺北市","station_name":"臺北市","station_id":"TAP","longitude":"121.514","latitude":"25.038","epicenter_distance":"57.20","back_azimuth":"148.59","seismic_intensity":"2","pga_v":"4.37","pga_ns":"4.59","pga_ew":"5.95","pga_int_scale":"6.50","pgv_v":"0.16","pgv_ns":"0.36","pgv_ew":"0.53","pgv_int_scale":"0.53","wave_image_uri":"https://scweb.cwa.gov.tw/webdata/drawTrace/outcome/2025/2025083/2-TAP.gif"},"geometry":{"type":"Point","coordinates":[121.514,25.038]}},{"type":"Feature","properties":{"area_desc":"臺北市地區","county_name":"臺北市","station_name":"陽明山","station_id":"ANP","longitude":"121.529","latitude":"25.183","epicenter_distance":"70.81","back_azimuth":"156.50","seismic_intensity":"2","pga_v":"1.30","pga_ns":"2.95","pga_ew":"2.35","pga_int_scale":"3.07","pgv_v":"0.09","pgv_ns":"0.29","pgv_ew":"0.15","pgv_int_scale":"0.30","wave_image_uri":"https://scweb.cwa.gov.tw/webdata/drawTrace/outcome/2025/2025083/2-ANP.gif"},"geometry":{"type":"Point","coordinates":[121.529,25.183]}},{"type":"Feature","properties":{"area_desc":"臺北市地區","county_name":"臺北市","station_name":"臺北市","station_id":"TAP","longitude":"121.514","latitude":"25.038","epicenter_distance":"133.56","back_azimuth":"160.74","seismic_intensity":"1","pga_v":"0.53","pga_ns":"1.01","pga_ew":"0.93","pga_int_scale":"1.19","pgv_v":"0.05","pgv_ns":"0.13","pgv_ew":"0.14","pgv_int_scale":"0.14","wave_image_uri":"https://scweb.cwa.gov.tw/webdata/drawTrace/outcome/2025/2025090/1-TAP.gif"},"geometry":{"type":"Point","coordinates":[121.514,25.038]}},{"type":"Feature","properties":{"area_desc":"臺北市地區","county_name":"臺北市","station_name":"木柵","station_id":"TWA","longitude":"121.592","latitude":"24.978","epicenter_distance":"124.47","back_azimuth":"163.74","seismic_intensity":"1","pga_v":"0.63","pga_ns":"0.59","pga_ew":"0.97","pga_int_scale":"1.08","pgv_v":"0.10","pgv_ns":"0.15","pgv_ew":"0.15","pgv_int_scale":"0.17","wave_image_uri":"https://scweb.cwa.gov.tw/webdata/drawTrace/outcome/2025/2025092/1-TWA.gif"},"geometry":{"type":"Point","coordinates":[121.592,24.978]}},{"type":"Feature","properties":{"area_desc":"臺北市地區","county_name":"臺北市","station_name":"臺北市","station_id":"TAP","longitude":"121.514","latitude":"25.038","epicenter_distance":"133.18","back_azimuth":"161.27","seismic_intensity":"1","pga_v":"0.67","pga_ns":"1.70","pga_ew":"1.35","pga_int_scale":"1.82","pgv_v":"0.09","pgv_ns":"0.31","pgv_ew":"0.27","pgv_int_scale":"0.35","wave_image_uri":"https://scweb.cwa.gov.tw/webdata/drawTrace/outcome/2025/2025092/1-TAP.gif"},"geometry":{"type":"Point","coordinates":[121.514,25.038]}},{"type":"Feature","properties":{"area_desc":"臺北市地區","county_name":"臺北市","station_name":"陽明山","station_id":"ANP","longitude":"121.529","latitude":"25.183","epicenter_distance":"148.08","back_azimuth":"163.85","seismic_intensity":"1","pga_v":"0.42","pga_ns":"0.80","pga_ew":"0.50","pga_int_scale":"0.81","pgv_v":"0.06","pgv_ns":"0.11","pgv_ew":"0.10","pgv_int_scale":"0.12","wave_image_uri":"https://scweb.cwa.gov.tw/webdata/drawTrace/outcome/2025/2025092/1-ANP.gif"},"geometry":{"type":"Point","coordinates":[121.529,25.183]}},{"type":"Feature","properties":{"area_desc":"臺北市地區","county_name":"臺北市","station_name":"臺北市","station_id":"TAP","longitude":"121.514","latitude":"25.038","epicenter_distance":"176.46","back_azimuth":"108.13","seismic_intensity":"1","pga_v":"1.05","pga_ns":"0.88","pga_ew":"1.02","pga_int_scale":"1.02","pgv_v":"0.04","pgv_ns":"0.07","pgv_ew":"0.12","pgv_int_scale":"0.12","wave_image_uri":"https://scweb.cwa.gov.tw/webdata/drawTrace/outcome/2025/2025082/1-TAP.gif"},"geometry":{"type":"Point","coordinates":[121.514,25.038]}},{"type":"Feature","properties":{"area_desc":"臺北市地區","county_name":"臺北市","station_name":"木柵","station_id":"TWA","longitude":"121.592","latitude":"24.978","epicenter_distance":"47.54","back_azimuth":"152.57","seismic_intensity":"2","pga_v":"2.81","pga_ns":"5.34","pga_ew":"5.79","pga_int_scale":"6.86","pgv_v":"0.16","pgv_ns":"0.28","pgv_ew":"0.36","pgv_int_scale":"0.38","wave_image_uri":"https://scweb.cwa.gov.tw/webdata/drawTrace/outcome/2025/2025083/2-TWA.gif"},"geometry":{"type":"Point","coordinates":[121.592,24.978]}},{"type":"Feature","properties":{"area_desc":"臺北市地區","county_name":"臺北市","station_name":"臺北市","station_id":"TAP","longitude":"121.514","latitude":"25.038","epicenter_distance":"57.20","back_azimuth":"148.59","seismic_intensity":"2","pga_v":"4.37","pga_ns":"4.59","pga_ew":"5.95","pga_int_scale":"6.50","pgv_v":"0.16","pgv_ns":"0.36","pgv_ew":"0.53","pgv_int_scale":"0.53","wave_image_uri":"https://scweb.cwa.gov.tw/webdata/drawTrace/outcome/2025/2025083/2-TAP.gif"},"geometry":{"type":"Point","coordinates":[121.514,25.038]}},{"type":"Feature","properties":{"area_desc":"臺北市地區","county_name":"臺北市","station_name":"陽明山","station_id":"ANP","longitude":"121.529","latitude":"25.183","epicenter_distance":"70.81","back_azimuth":"156.50","seismic_intensity":"2","pga_v":"1.30","pga_ns":"2.95","pga_ew":"2.35","pga_int_scale":"3.07","pgv_v":"0.09","pgv_ns":"0.29","pgv_ew":"0.15","pgv_int_scale":"0.30","wave_image_uri":"https://scweb.cwa.gov.tw/webdata/drawTrace/outcome/2025/2025083/2-ANP.gif"},"geometry":{"type":"Point","coordinates":[121.529,25.183]}},{"type":"Feature","properties":{"area_desc":"臺北市地區","county_name":"臺北市","station_name":"臺北市","station_id":"TAP","longitude":"121.514","latitude":"25.038","epicenter_distance":"133.56","back_azimuth":"160.74","seismic_intensity":"1","pga_v":"0.53","pga_ns":"1.01","pga_ew":"0.93","pga_int_scale":"1.19","pgv_v":"0.05","pgv_ns":"0.13","pgv_ew":"0.14","pgv_int_scale":"0.14","wave_image_uri":"https://scweb.cwa.gov.tw/webdata/drawTrace/outcome/2025/2025090/1-TAP.gif"},"geometry":{"type":"Point","coordinates":[121.514,25.038]}},{"type":"Feature","properties":{"area_desc":"臺北市地區","county_name":"臺北市","station_name":"木柵","station_id":"TWA","longitude":"121.592","latitude":"24.978","epicenter_distance":"124.47","back_azimuth":"163.74","seismic_intensity":"1","pga_v":"0.63","pga_ns":"0.59","pga_ew":"0.97","pga_int_scale":"1.08","pgv_v":"0.10","pgv_ns":"0.15","pgv_ew":"0.15","pgv_int_scale":"0.17","wave_image_uri":"https://scweb.cwa.gov.tw/webdata/drawTrace/outcome/2025/2025092/1-TWA.gif"},"geometry":{"type":"Point","coordinates":[121.592,24.978]}},{"type":"Feature","properties":{"area_desc":"臺北市地區","county_name":"臺北市","station_name":"臺北市","station_id":"TAP","longitude":"121.514","latitude":"25.038","epicenter_distance":"133.18","back_azimuth":"161.27","seismic_intensity":"1","pga_v":"0.67","pga_ns":"1.70","pga_ew":"1.35","pga_int_scale":"1.82","pgv_v":"0.09","pgv_ns":"0.31","pgv_ew":"0.27","pgv_int_scale":"0.35","wave_image_uri":"https://scweb.cwa.gov.tw/webdata/drawTrace/outcome/2025/2025092/1-TAP.gif"},"geometry":{"type":"Point","coordinates":[121.514,25.038]}},{"type":"Feature","properties":{"area_desc":"臺北市地區","county_name":"臺北市","station_name":"陽明山","station_id":"ANP","longitude":"121.529","latitude":"25.183","epicenter_distance":"148.08","back_azimuth":"163.85","seismic_intensity":"1","pga_v":"0.42","pga_ns":"0.80","pga_ew":"0.50","pga_int_scale":"0.81","pgv_v":"0.06","pgv_ns":"0.11","pgv_ew":"0.10","pgv_int_scale":"0.12","wave_image_uri":"https://scweb.cwa.gov.tw/webdata/drawTrace/outcome/2025/2025092/1-ANP.gif"},"geometry":{"type":"Point","coordinates":[121.529,25.183]}},{"type":"Feature","properties":{"area_desc":"臺北市地區","county_name":"臺北市","station_name":"臺北市","station_id":"TAP","longitude":"121.514","latitude":"25.038","epicenter_distance":"176.46","back_azimuth":"108.13","seismic_intensity":"1","pga_v":"1.05","pga_ns":"0.88","pga_ew":"1.02","pga_int_scale":"1.02","pgv_v":"0.04","pgv_ns":"0.07","pgv_ew":"0.12","pgv_int_scale":"0.12","wave_image_uri":"https://scweb.cwa.gov.tw/webdata/drawTrace/outcome/2025/2025082/1-TAP.gif"},"geometry":{"type":"Point","coordinates":[121.514,25.038]}},{"type":"Feature","properties":{"area_desc":"臺北市地區","county_name":"臺北市","station_name":"木柵","station_id":"TWA","longitude":"121.592","latitude":"24.978","epicenter_distance":"47.54","back_azimuth":"152.57","seismic_intensity":"2","pga_v":"2.81","pga_ns":"5.34","pga_ew":"5.79","pga_int_scale":"6.86","pgv_v":"0.16","pgv_ns":"0.28","pgv_ew":"0.36","pgv_int_scale":"0.38","wave_image_uri":"https://scweb.cwa.gov.tw/webdata/drawTrace/outcome/2025/2025083/2-TWA.gif"},"geometry":{"type":"Point","coordinates":[121.592,24.978]}},{"type":"Feature","properties":{"area_desc":"臺北市地區","county_name":"臺北市","station_name":"臺北市","station_id":"TAP","longitude":"121.514","latitude":"25.038","epicenter_distance":"57.20","back_azimuth":"148.59","seismic_intensity":"2","pga_v":"4.37","pga_ns":"4.59","pga_ew":"5.95","pga_int_scale":"6.50","pgv_v":"0.16","pgv_ns":"0.36","pgv_ew":"0.53","pgv_int_scale":"0.53","wave_image_uri":"https://scweb.cwa.gov.tw/webdata/drawTrace/outcome/2025/2025083/2-TAP.gif"},"geometry":{"type":"Point","coordinates":[121.514,25.038]}},{"type":"Feature","properties":{"area_desc":"臺北市地區","county_name":"臺北市","station_name":"陽明山","station_id":"ANP","longitude":"121.529","latitude":"25.183","epicenter_distance":"70.81","back_azimuth":"156.50","seismic_intensity":"2","pga_v":"1.30","pga_ns":"2.95","pga_ew":"2.35","pga_int_scale":"3.07","pgv_v":"0.09","pgv_ns":"0.29","pgv_ew":"0.15","pgv_int_scale":"0.30","wave_image_uri":"https://scweb.cwa.gov.tw/webdata/drawTrace/outcome/2025/2025083/2-ANP.gif"},"geometry":{"type":"Point","coordinates":[121.529,25.183]}},{"type":"Feature","properties":{"area_desc":"臺北市地區","county_name":"臺北市","station_name":"臺北市","station_id":"TAP","longitude":"121.514","latitude":"25.038","epicenter_distance":"133.56","back_azimuth":"160.74","seismic_intensity":"1","pga_v":"0.53","pga_ns":"1.01","pga_ew":"0.93","pga_int_scale":"1.19","pgv_v":"0.05","pgv_ns":"0.13","pgv_ew":"0.14","pgv_int_scale":"0.14","wave_image_uri":"https://scweb.cwa.gov.tw/webdata/drawTrace/outcome/2025/2025090/1-TAP.gif"},"geometry":{"type":"Point","coordinates":[121.514,25.038]}},{"type":"Feature","properties":{"area_desc":"臺北市地區","county_name":"臺北市","station_name":"木柵","station_id":"TWA","longitude":"121.592","latitude":"24.978","epicenter_distance":"124.47","back_azimuth":"163.74","seismic_intensity":"1","pga_v":"0.63","pga_ns":"0.59","pga_ew":"0.97","pga_int_scale":"1.08","pgv_v":"0.10","pgv_ns":"0.15","pgv_ew":"0.15","pgv_int_scale":"0.17","wave_image_uri":"https://scweb.cwa.gov.tw/webdata/drawTrace/outcome/2025/2025092/1-TWA.gif"},"geometry":{"type":"Point","coordinates":[121.592,24.978]}},{"type":"Feature","properties":{"area_desc":"臺北市地區","county_name":"臺北市","station_name":"臺北市","station_id":"TAP","longitude":"121.514","latitude":"25.038","epicenter_distance":"133.18","back_azimuth":"161.27","seismic_intensity":"1","pga_v":"0.67","pga_ns":"1.70","pga_ew":"1.35","pga_int_scale":"1.82","pgv_v":"0.09","pgv_ns":"0.31","pgv_ew":"0.27","pgv_int_scale":"0.35","wave_image_uri":"https://scweb.cwa.gov.tw/webdata/drawTrace/outcome/2025/2025092/1-TAP.gif"},"geometry":{"type":"Point","coordinates":[121.514,25.038]}},{"type":"Feature","properties":{"area_desc":"臺北市地區","county_name":"臺北市","station_name":"陽明山","station_id":"ANP","longitude":"121.529","latitude":"25.183","epicenter_distance":"148.08","back_azimuth":"163.85","seismic_intensity":"1","pga_v":"0.42","pga_ns":"0.80","pga_ew":"0.50","pga_int_scale":"0.81","pgv_v":"0.06","pgv_ns":"0.11","pgv_ew":"0.10","pgv_int_scale":"0.12","wave_image_uri":"https://scweb.cwa.gov.tw/webdata/drawTrace/outcome/2025/2025092/1-ANP.gif"},"geometry":{"type":"Point","coordinates":[121.529,25.183]}},{"type":"Feature","properties":{"area_desc":"臺北市地區","county_name":"臺北市","station_name":"臺北市","station_id":"TAP","longitude":"121.514","latitude":"25.038","epicenter_distance":"176.46","back_azimuth":"108.13","seismic_intensity":"1","pga_v":"1.05","pga_ns":"0.88","pga_ew":"1.02","pga_int_scale":"1.02","pgv_v":"0.04","pgv_ns":"0.07","pgv_ew":"0.12","pgv_int_scale":"0.12","wave_image_uri":"https://scweb.cwa.gov.tw/webdata/drawTrace/outcome/2025/2025082/1-TAP.gif"},"geometry":{"type":"Point","coordinates":[121.514,25.038]}},{"type":"Feature","properties":{"area_desc":"臺北市地區","county_name":"臺北市","station_name":"木柵","station_id":"TWA","longitude":"121.592","latitude":"24.978","epicenter_distance":"47.54","back_azimuth":"152.57","seismic_intensity":"2","pga_v":"2.81","pga_ns":"5.34","pga_ew":"5.79","pga_int_scale":"6.86","pgv_v":"0.16","pgv_ns":"0.28","pgv_ew":"0.36","pgv_int_scale":"0.38","wave_image_uri":"https://scweb.cwa.gov.tw/webdata/drawTrace/outcome/2025/2025083/2-TWA.gif"},"geometry":{"type":"Point","coordinates":[121.592,24.978]}},{"type":"Feature","properties":{"area_desc":"臺北市地區","county_name":"臺北市","station_name":"臺北市","station_id":"TAP","longitude":"121.514","latitude":"25.038","epicenter_distance":"57.20","back_azimuth":"148.59","seismic_intensity":"2","pga_v":"4.37","pga_ns":"4.59","pga_ew":"5.95","pga_int_scale":"6.50","pgv_v":"0.16","pgv_ns":"0.36","pgv_ew":"0.53","pgv_int_scale":"0.53","wave_image_uri":"https://scweb.cwa.gov.tw/webdata/drawTrace/outcome/2025/2025083/2-TAP.gif"},"geometry":{"type":"Point","coordinates":[121.514,25.038]}},{"type":"Feature","properties":{"area_desc":"臺北市地區","county_name":"臺北市","station_name":"陽明山","station_id":"ANP","longitude":"121.529","latitude":"25.183","epicenter_distance":"70.81","back_azimuth":"156.50","seismic_intensity":"2","pga_v":"1.30","pga_ns":"2.95","pga_ew":"2.35","pga_int_scale":"3.07","pgv_v":"0.09","pgv_ns":"0.29","pgv_ew":"0.15","pgv_int_scale":"0.30","wave_image_uri":"https://scweb.cwa.gov.tw/webdata/drawTrace/outcome/2025/2025083/2-ANP.gif"},"geometry":{"type":"Point","coordinates":[121.529,25.183]}},{"type":"Feature","properties":{"area_desc":"臺北市地區","county_name":"臺北市","station_name":"臺北市","station_id":"TAP","longitude":"121.514","latitude":"25.038","epicenter_distance":"133.56","back_azimuth":"160.74","seismic_intensity":"1","pga_v":"0.53","pga_ns":"1.01","pga_ew":"0.93","pga_int_scale":"1.19","pgv_v":"0.05","pgv_ns":"0.13","pgv_ew":"0.14","pgv_int_scale":"0.14","wave_image_uri":"https://scweb.cwa.gov.tw/webdata/drawTrace/outcome/2025/2025090/1-TAP.gif"},"geometry":{"type":"Point","coordinates":[121.514,25.038]}},{"type":"Feature","properties":{"area_desc":"臺北市地區","county_name":"臺北市","station_name":"木柵","station_id":"TWA","longitude":"121.592","latitude":"24.978","epicenter_distance":"124.47","back_azimuth":"163.74","seismic_intensity":"1","pga_v":"0.63","pga_ns":"0.59","pga_ew":"0.97","pga_int_scale":"1.08","pgv_v":"0.10","pgv_ns":"0.15","pgv_ew":"0.15","pgv_int_scale":"0.17","wave_image_uri":"https://scweb.cwa.gov.tw/webdata/drawTrace/outcome/2025/2025092/1-TWA.gif"},"geometry":{"type":"Point","coordinates":[121.592,24.978]}},{"type":"Feature","properties":{"area_desc":"臺北市地區","county_name":"臺北市","station_name":"臺北市","station_id":"TAP","longitude":"121.514","latitude":"25.038","epicenter_distance":"133.18","back_azimuth":"161.27","seismic_intensity":"1","pga_v":"0.67","pga_ns":"1.70","pga_ew":"1.35","pga_int_scale":"1.82","pgv_v":"0.09","pgv_ns":"0.31","pgv_ew":"0.27","pgv_int_scale":"0.35","wave_image_uri":"https://scweb.cwa.gov.tw/webdata/drawTrace/outcome/2025/2025092/1-TAP.gif"},"geometry":{"type":"Point","coordinates":[121.514,25.038]}},{"type":"Feature","properties":{"area_desc":"臺北市地區","county_name":"臺北市","station_name":"陽明山","station_id":"ANP","longitude":"121.529","latitude":"25.183","epicenter_distance":"148.08","back_azimuth":"163.85","seismic_intensity":"1","pga_v":"0.42","pga_ns":"0.80","pga_ew":"0.50","pga_int_scale":"0.81","pgv_v":"0.06","pgv_ns":"0.11","pgv_ew":"0.10","pgv_int_scale":"0.12","wave_image_uri":"https://scweb.cwa.gov.tw/webdata/drawTrace/outcome/2025/2025092/1-ANP.gif"},"geometry":{"type":"Point","coordinates":[121.529,25.183]}},{"type":"Feature","properties":{"area_desc":"臺北市地區","county_name":"臺北市","station_name":"臺北市","station_id":"TAP","longitude":"121.514","latitude":"25.038","epicenter_distance":"176.46","back_azimuth":"108.13","seismic_intensity":"1","pga_v":"1.05","pga_ns":"0.88","pga_ew":"1.02","pga_int_scale":"1.02","pgv_v":"0.04","pgv_ns":"0.07","pgv_ew":"0.12","pgv_int_scale":"0.12","wave_image_uri":"https://scweb.cwa.gov.tw/webdata/drawTrace/outcome/2025/2025082/1-TAP.gif"},"geometry":{"type":"Point","coordinates":[121.514,25.038]}},{"type":"Feature","properties":{"area_desc":"臺北市地區","county_name":"臺北市","station_name":"木柵","station_id":"TWA","longitude":"121.592","latitude":"24.978","epicenter_distance":"47.54","back_azimuth":"152.57","seismic_intensity":"2","pga_v":"2.81","pga_ns":"5.34","pga_ew":"5.79","pga_int_scale":"6.86","pgv_v":"0.16","pgv_ns":"0.28","pgv_ew":"0.36","pgv_int_scale":"0.38","wave_image_uri":"https://scweb.cwa.gov.tw/webdata/drawTrace/outcome/2025/2025083/2-TWA.gif"},"geometry":{"type":"Point","coordinates":[121.592,24.978]}},{"type":"Feature","properties":{"area_desc":"臺北市地區","county_name":"臺北市","station_name":"臺北市","station_id":"TAP","longitude":"121.514","latitude":"25.038","epicenter_distance":"57.20","back_azimuth":"148.59","seismic_intensity":"2","pga_v":"4.37","pga_ns":"4.59","pga_ew":"5.95","pga_int_scale":"6.50","pgv_v":"0.16","pgv_ns":"0.36","pgv_ew":"0.53","pgv_int_scale":"0.53","wave_image_uri":"https://scweb.cwa.gov.tw/webdata/drawTrace/outcome/2025/2025083/2-TAP.gif"},"geometry":{"type":"Point","coordinates":[121.514,25.038]}},{"type":"Feature","properties":{"area_desc":"臺北市地區","county_name":"臺北市","station_name":"陽明山","station_id":"ANP","longitude":"121.529","latitude":"25.183","epicenter_distance":"70.81","back_azimuth":"156.50","seismic_intensity":"2","pga_v":"1.30","pga_ns":"2.95","pga_ew":"2.35","pga_int_scale":"3.07","pgv_v":"0.09","pgv_ns":"0.29","pgv_ew":"0.15","pgv_int_scale":"0.30","wave_image_uri":"https://scweb.cwa.gov.tw/webdata/drawTrace/outcome/2025/2025083/2-ANP.gif"},"geometry":{"type":"Point","coordinates":[121.529,25.183]}},{"type":"Feature","properties":{"area_desc":"臺北市地區","county_name":"臺北市","station_name":"臺北市","station_id":"TAP","longitude":"121.514","latitude":"25.038","epicenter_distance":"133.56","back_azimuth":"160.74","seismic_intensity":"1","pga_v":"0.53","pga_ns":"1.01","pga_ew":"0.93","pga_int_scale":"1.19","pgv_v":"0.05","pgv_ns":"0.13","pgv_ew":"0.14","pgv_int_scale":"0.14","wave_image_uri":"https://scweb.cwa.gov.tw/webdata/drawTrace/outcome/2025/2025090/1-TAP.gif"},"geometry":{"type":"Point","coordinates":[121.514,25.038]}},{"type":"Feature","properties":{"area_desc":"臺北市地區","county_name":"臺北市","station_name":"木柵","station_id":"TWA","longitude":"121.592","latitude":"24.978","epicenter_distance":"124.47","back_azimuth":"163.74","seismic_intensity":"1","pga_v":"0.63","pga_ns":"0.59","pga_ew":"0.97","pga_int_scale":"1.08","pgv_v":"0.10","pgv_ns":"0.15","pgv_ew":"0.15","pgv_int_scale":"0.17","wave_image_uri":"https://scweb.cwa.gov.tw/webdata/drawTrace/outcome/2025/2025092/1-TWA.gif"},"geometry":{"type":"Point","coordinates":[121.592,24.978]}},{"type":"Feature","properties":{"area_desc":"臺北市地區","county_name":"臺北市","station_name":"臺北市","station_id":"TAP","longitude":"121.514","latitude":"25.038","epicenter_distance":"133.18","back_azimuth":"161.27","seismic_intensity":"1","pga_v":"0.67","pga_ns":"1.70","pga_ew":"1.35","pga_int_scale":"1.82","pgv_v":"0.09","pgv_ns":"0.31","pgv_ew":"0.27","pgv_int_scale":"0.35","wave_image_uri":"https://scweb.cwa.gov.tw/webdata/drawTrace/outcome/2025/2025092/1-TAP.gif"},"geometry":{"type":"Point","coordinates":[121.514,25.038]}},{"type":"Feature","properties":{"area_desc":"臺北市地區","county_name":"臺北市","station_name":"陽明山","station_id":"ANP","longitude":"121.529","latitude":"25.183","epicenter_distance":"148.08","back_azimuth":"163.85","seismic_intensity":"1","pga_v":"0.42","pga_ns":"0.80","pga_ew":"0.50","pga_int_scale":"0.81","pgv_v":"0.06","pgv_ns":"0.11","pgv_ew":"0.10","pgv_int_scale":"0.12","wave_image_uri":"https://scweb.cwa.gov.tw/webdata/drawTrace/outcome/2025/2025092/1-ANP.gif"},"geometry":{"type":"Point","coordinates":[121.529,25.183]}},{"type":"Feature","properties":{"area_desc":"臺北市地區","county_name":"臺北市","station_name":"臺北市","station_id":"TAP","longitude":"121.514","latitude":"25.038","epicenter_distance":"176.46","back_azimuth":"108.13","seismic_intensity":"1","pga_v":"1.05","pga_ns":"0.88","pga_ew":"1.02","pga_int_scale":"1.02","pgv_v":"0.04","pgv_ns":"0.07","pgv_ew":"0.12","pgv_int_scale":"0.12","wave_image_uri":"https://scweb.cwa.gov.tw/webdata/drawTrace/outcome/2025/2025082/1-TAP.gif"},"geometry":{"type":"Point","coordinates":[121.514,25.038]}},{"type":"Feature","properties":{"area_desc":"臺北市地區","county_name":"臺北市","station_name":"木柵","station_id":"TWA","longitude":"121.592","latitude":"24.978","epicenter_distance":"47.54","back_azimuth":"152.57","seismic_intensity":"2","pga_v":"2.81","pga_ns":"5.34","pga_ew":"5.79","pga_int_scale":"6.86","pgv_v":"0.16","pgv_ns":"0.28","pgv_ew":"0.36","pgv_int_scale":"0.38","wave_image_uri":"https://scweb.cwa.gov.tw/webdata/drawTrace/outcome/2025/2025083/2-TWA.gif"},"geometry":{"type":"Point","coordinates":[121.592,24.978]}},{"type":"Feature","properties":{"area_desc":"臺北市地區","county_name":"臺北市","station_name":"臺北市","station_id":"TAP","longitude":"121.514","latitude":"25.038","epicenter_distance":"57.20","back_azimuth":"148.59","seismic_intensity":"2","pga_v":"4.37","pga_ns":"4.59","pga_ew":"5.95","pga_int_scale":"6.50","pgv_v":"0.16","pgv_ns":"0.36","pgv_ew":"0.53","pgv_int_scale":"0.53","wave_image_uri":"https://scweb.cwa.gov.tw/webdata/drawTrace/outcome/2025/2025083/2-TAP.gif"},"geometry":{"type":"Point","coordinates":[121.514,25.038]}},{"type":"Feature","properties":{"area_desc":"臺北市地區","county_name":"臺北市","station_name":"陽明山","station_id":"ANP","longitude":"121.529","latitude":"25.183","epicenter_distance":"70.81","back_azimuth":"156.50","seismic_intensity":"2","pga_v":"1.30","pga_ns":"2.95","pga_ew":"2.35","pga_int_scale":"3.07","pgv_v":"0.09","pgv_ns":"0.29","pgv_ew":"0.15","pgv_int_scale":"0.30","wave_image_uri":"https://scweb.cwa.gov.tw/webdata/drawTrace/outcome/2025/2025083/2-ANP.gif"},"geometry":{"type":"Point","coordinates":[121.529,25.183]}},{"type":"Feature","properties":{"area_desc":"臺北市地區","county_name":"臺北市","station_name":"臺北市","station_id":"TAP","longitude":"121.514","latitude":"25.038","epicenter_distance":"133.56","back_azimuth":"160.74","seismic_intensity":"1","pga_v":"0.53","pga_ns":"1.01","pga_ew":"0.93","pga_int_scale":"1.19","pgv_v":"0.05","pgv_ns":"0.13","pgv_ew":"0.14","pgv_int_scale":"0.14","wave_image_uri":"https://scweb.cwa.gov.tw/webdata/drawTrace/outcome/2025/2025090/1-TAP.gif"},"geometry":{"type":"Point","coordinates":[121.514,25.038]}},{"type":"Feature","properties":{"area_desc":"臺北市地區","county_name":"臺北市","station_name":"木柵","station_id":"TWA","longitude":"121.592","latitude":"24.978","epicenter_distance":"124.47","back_azimuth":"163.74","seismic_intensity":"1","pga_v":"0.63","pga_ns":"0.59","pga_ew":"0.97","pga_int_scale":"1.08","pgv_v":"0.10","pgv_ns":"0.15","pgv_ew":"0.15","pgv_int_scale":"0.17","wave_image_uri":"https://scweb.cwa.gov.tw/webdata/drawTrace/outcome/2025/2025092/1-TWA.gif"},"geometry":{"type":"Point","coordinates":[121.592,24.978]}},{"type":"Feature","properties":{"area_desc":"臺北市地區","county_name":"臺北市","station_name":"臺北市","station_id":"TAP","longitude":"121.514","latitude":"25.038","epicenter_distance":"133.18","back_azimuth":"161.27","seismic_intensity":"1","pga_v":"0.67","pga_ns":"1.70","pga_ew":"1.35","pga_int_scale":"1.82","pgv_v":"0.09","pgv_ns":"0.31","pgv_ew":"0.27","pgv_int_scale":"0.35","wave_image_uri":"https://scweb.cwa.gov.tw/webdata/drawTrace/outcome/2025/2025092/1-TAP.gif"},"geometry":{"type":"Point","coordinates":[121.514,25.038]}},{"type":"Feature","properties":{"area_desc":"臺北市地區","county_name":"臺北市","station_name":"陽明山","station_id":"ANP","longitude":"121.529","latitude":"25.183","epicenter_distance":"148.08","back_azimuth":"163.85","seismic_intensity":"1","pga_v":"0.42","pga_ns":"0.80","pga_ew":"0.50","pga_int_scale":"0.81","pgv_v":"0.06","pgv_ns":"0.11","pgv_ew":"0.10","pgv_int_scale":"0.12","wave_image_uri":"https://scweb.cwa.gov.tw/webdata/drawTrace/outcome/2025/2025092/1-ANP.gif"},"geometry":{"type":"Point","coordinates":[121.529,25.183]}},{"type":"Feature","properties":{"area_desc":"臺北市地區","county_name":"臺北市","station_name":"臺北市","station_id":"TAP","longitude":"121.514","latitude":"25.038","epicenter_distance":"176.46","back_azimuth":"108.13","seismic_intensity":"1","pga_v":"1.05","pga_ns":"0.88","pga_ew":"1.02","pga_int_scale":"1.02","pgv_v":"0.04","pgv_ns":"0.07","pgv_ew":"0.12","pgv_int_scale":"0.12","wave_image_uri":"https://scweb.cwa.gov.tw/webdata/drawTrace/outcome/2025/2025082/1-TAP.gif"},"geometry":{"type":"Point","coordinates":[121.514,25.038]}},{"type":"Feature","properties":{"area_desc":"臺北市地區","county_name":"臺北市","station_name":"木柵","station_id":"TWA","longitude":"121.592","latitude":"24.978","epicenter_distance":"47.54","back_azimuth":"152.57","seismic_intensity":"2","pga_v":"2.81","pga_ns":"5.34","pga_ew":"5.79","pga_int_scale":"6.86","pgv_v":"0.16","pgv_ns":"0.28","pgv_ew":"0.36","pgv_int_scale":"0.38","wave_image_uri":"https://scweb.cwa.gov.tw/webdata/drawTrace/outcome/2025/2025083/2-TWA.gif"},"geometry":{"type":"Point","coordinates":[121.592,24.978]}},{"type":"Feature","properties":{"area_desc":"臺北市地區","county_name":"臺北市","station_name":"臺北市","station_id":"TAP","longitude":"121.514","latitude":"25.038","epicenter_distance":"57.20","back_azimuth":"148.59","seismic_intensity":"2","pga_v":"4.37","pga_ns":"4.59","pga_ew":"5.95","pga_int_scale":"6.50","pgv_v":"0.16","pgv_ns":"0.36","pgv_ew":"0.53","pgv_int_scale":"0.53","wave_image_uri":"https://scweb.cwa.gov.tw/webdata/drawTrace/outcome/2025/2025083/2-TAP.gif"},"geometry":{"type":"Point","coordinates":[121.514,25.038]}},{"type":"Feature","properties":{"area_desc":"臺北市地區","county_name":"臺北市","station_name":"陽明山","station_id":"ANP","longitude":"121.529","latitude":"25.183","epicenter_distance":"70.81","back_azimuth":"156.50","seismic_intensity":"2","pga_v":"1.30","pga_ns":"2.95","pga_ew":"2.35","pga_int_scale":"3.07","pgv_v":"0.09","pgv_ns":"0.29","pgv_ew":"0.15","pgv_int_scale":"0.30","wave_image_uri":"https://scweb.cwa.gov.tw/webdata/drawTrace/outcome/2025/2025083/2-ANP.gif"},"geometry":{"type":"Point","coordinates":[121.529,25.183]}},{"type":"Feature","properties":{"area_desc":"臺北市地區","county_name":"臺北市","station_name":"臺北市","station_id":"TAP","longitude":"121.514","latitude":"25.038","epicenter_distance":"133.56","back_azimuth":"160.74","seismic_intensity":"1","pga_v":"0.53","pga_ns":"1.01","pga_ew":"0.93","pga_int_scale":"1.19","pgv_v":"0.05","pgv_ns":"0.13","pgv_ew":"0.14","pgv_int_scale":"0.14","wave_image_uri":"https://scweb.cwa.gov.tw/webdata/drawTrace/outcome/2025/2025090/1-TAP.gif"},"geometry":{"type":"Point","coordinates":[121.514,25.038]}},{"type":"Feature","properties":{"area_desc":"臺北市地區","county_name":"臺北市","station_name":"木柵","station_id":"TWA","longitude":"121.592","latitude":"24.978","epicenter_distance":"124.47","back_azimuth":"163.74","seismic_intensity":"1","pga_v":"0.63","pga_ns":"0.59","pga_ew":"0.97","pga_int_scale":"1.08","pgv_v":"0.10","pgv_ns":"0.15","pgv_ew":"0.15","pgv_int_scale":"0.17","wave_image_uri":"https://scweb.cwa.gov.tw/webdata/drawTrace/outcome/2025/2025092/1-TWA.gif"},"geometry":{"type":"Point","coordinates":[121.592,24.978]}},{"type":"Feature","properties":{"area_desc":"臺北市地區","county_name":"臺北市","station_name":"臺北市","station_id":"TAP","longitude":"121.514","latitude":"25.038","epicenter_distance":"133.18","back_azimuth":"161.27","seismic_intensity":"1","pga_v":"0.67","pga_ns":"1.70","pga_ew":"1.35","pga_int_scale":"1.82","pgv_v":"0.09","pgv_ns":"0.31","pgv_ew":"0.27","pgv_int_scale":"0.35","wave_image_uri":"https://scweb.cwa.gov.tw/webdata/drawTrace/outcome/2025/2025092/1-TAP.gif"},"geometry":{"type":"Point","coordinates":[121.514,25.038]}},{"type":"Feature","properties":{"area_desc":"臺北市地區","county_name":"臺北市","station_name":"陽明山","station_id":"ANP","longitude":"121.529","latitude":"25.183","epicenter_distance":"148.08","back_azimuth":"163.85","seismic_intensity":"1","pga_v":"0.42","pga_ns":"0.80","pga_ew":"0.50","pga_int_scale":"0.81","pgv_v":"0.06","pgv_ns":"0.11","pgv_ew":"0.10","pgv_int_scale":"0.12","wave_image_uri":"https://scweb.cwa.gov.tw/webdata/drawTrace/outcome/2025/2025092/1-ANP.gif"},"geometry":{"type":"Point","coordinates":[121.529,25.183]}},{"type":"Feature","properties":{"area_desc":"臺北市地區","county_name":"臺北市","station_name":"臺北市","station_id":"TAP","longitude":"121.514","latitude":"25.038","epicenter_distance":"176.46","back_azimuth":"108.13","seismic_intensity":"1","pga_v":"1.05","pga_ns":"0.88","pga_ew":"1.02","pga_int_scale":"1.02","pgv_v":"0.04","pgv_ns":"0.07","pgv_ew":"0.12","pgv_int_scale":"0.12","wave_image_uri":"https://scweb.cwa.gov.tw/webdata/drawTrace/outcome/2025/2025082/1-TAP.gif"},"geometry":{"type":"Point","coordinates":[121.514,25.038]}},{"type":"Feature","properties":{"area_desc":"臺北市地區","county_name":"臺北市","station_name":"木柵","station_id":"TWA","longitude":"121.592","latitude":"24.978","epicenter_distance":"47.54","back_azimuth":"152.57","seismic_intensity":"2","pga_v":"2.81","pga_ns":"5.34","pga_ew":"5.79","pga_int_scale":"6.86","pgv_v":"0.16","pgv_ns":"0.28","pgv_ew":"0.36","pgv_int_scale":"0.38","wave_image_uri":"https://scweb.cwa.gov.tw/webdata/drawTrace/outcome/2025/2025083/2-TWA.gif"},"geometry":{"type":"Point","coordinates":[121.592,24.978]}},{"type":"Feature","properties":{"area_desc":"臺北市地區","county_name":"臺北市","station_name":"臺北市","station_id":"TAP","longitude":"121.514","latitude":"25.038","epicenter_distance":"57.20","back_azimuth":"148.59","seismic_intensity":"2","pga_v":"4.37","pga_ns":"4.59","pga_ew":"5.95","pga_int_scale":"6.50","pgv_v":"0.16","pgv_ns":"0.36","pgv_ew":"0.53","pgv_int_scale":"0.53","wave_image_uri":"https://scweb.cwa.gov.tw/webdata/drawTrace/outcome/2025/2025083/2-TAP.gif"},"geometry":{"type":"Point","coordinates":[121.514,25.038]}},{"type":"Feature","properties":{"area_desc":"臺北市地區","county_name":"臺北市","station_name":"陽明山","station_id":"ANP","longitude":"121.529","latitude":"25.183","epicenter_distance":"70.81","back_azimuth":"156.50","seismic_intensity":"2","pga_v":"1.30","pga_ns":"2.95","pga_ew":"2.35","pga_int_scale":"3.07","pgv_v":"0.09","pgv_ns":"0.29","pgv_ew":"0.15","pgv_int_scale":"0.30","wave_image_uri":"https://scweb.cwa.gov.tw/webdata/drawTrace/outcome/2025/2025083/2-ANP.gif"},"geometry":{"type":"Point","coordinates":[121.529,25.183]}},{"type":"Feature","properties":{"area_desc":"臺北市地區","county_name":"臺北市","station_name":"臺北市","station_id":"TAP","longitude":"121.514","latitude":"25.038","epicenter_distance":"133.56","back_azimuth":"160.74","seismic_intensity":"1","pga_v":"0.53","pga_ns":"1.01","pga_ew":"0.93","pga_int_scale":"1.19","pgv_v":"0.05","pgv_ns":"0.13","pgv_ew":"0.14","pgv_int_scale":"0.14","wave_image_uri":"https://scweb.cwa.gov.tw/webdata/drawTrace/outcome/2025/2025090/1-TAP.gif"},"geometry":{"type":"Point","coordinates":[121.514,25.038]}},{"type":"Feature","properties":{"area_desc":"臺北市地區","county_name":"臺北市","station_name":"木柵","station_id":"TWA","longitude":"121.592","latitude":"24.978","epicenter_distance":"124.47","back_azimuth":"163.74","seismic_intensity":"1","pga_v":"0.63","pga_ns":"0.59","pga_ew":"0.97","pga_int_scale":"1.08","pgv_v":"0.10","pgv_ns":"0.15","pgv_ew":"0.15","pgv_int_scale":"0.17","wave_image_uri":"https://scweb.cwa.gov.tw/webdata/drawTrace/outcome/2025/2025092/1-TWA.gif"},"geometry":{"type":"Point","coordinates":[121.592,24.978]}},{"type":"Feature","properties":{"area_desc":"臺北市地區","county_name":"臺北市","station_name":"臺北市","station_id":"TAP","longitude":"121.514","latitude":"25.038","epicenter_distance":"133.18","back_azimuth":"161.27","seismic_intensity":"1","pga_v":"0.67","pga_ns":"1.70","pga_ew":"1.35","pga_int_scale":"1.82","pgv_v":"0.09","pgv_ns":"0.31","pgv_ew":"0.27","pgv_int_scale":"0.35","wave_image_uri":"https://scweb.cwa.gov.tw/webdata/drawTrace/outcome/2025/2025092/1-TAP.gif"},"geometry":{"type":"Point","coordinates":[121.514,25.038]}},{"type":"Feature","properties":{"area_desc":"臺北市地區","county_name":"臺北市","station_name":"陽明山","station_id":"ANP","longitude":"121.529","latitude":"25.183","epicenter_distance":"148.08","back_azimuth":"163.85","seismic_intensity":"1","pga_v":"0.42","pga_ns":"0.80","pga_ew":"0.50","pga_int_scale":"0.81","pgv_v":"0.06","pgv_ns":"0.11","pgv_ew":"0.10","pgv_int_scale":"0.12","wave_image_uri":"https://scweb.cwa.gov.tw/webdata/drawTrace/outcome/2025/2025092/1-ANP.gif"},"geometry":{"type":"Point","coordinates":[121.529,25.183]}}]}