{
   "type": "FeatureCollection",
   "features": [
  {
    "type": "Feature",
    "geometry": {
       "type": "Point",
       "coordinates":  [ 121.551149,24.861817 ]
    },
    "properties": {
    "排序":56,
    "流域":"淡水河",
    "水位站":"覽勝橋",
    "水情時間":"05-31 13:00",
    "目前水位":116.6,
    "一級警戒值":114.5,
    "二級警戒值":"112.5",
    "三級警戒值":"--",
    "警戒狀態":"一級警戒",
    "place_name":"233台湾烏來區覽勝大橋",
    "city":"metrotaipei",
    "district":"烏來區"
    }
  },
  {
    "type": "Feature",
    "geometry": {
       "type": "Point",
       "coordinates":  [ 121.540266,24.884628 ]
    },
    "properties": {
    "排序":66,
    "流域":"淡水河",
    "水位站":"加九寮景觀大橋",
    "水情時間":"05-31 13:00",
    "目前水位":93.65,
    "一級警戒值":90.2,
    "二級警戒值":"88",
    "三級警戒值":"--",
    "警戒狀態":"一級警戒",
    "place_name":"233台湾烏來區加九寮景觀橋",
    "city":"metrotaipei",
    "district":"烏來區"
    }
  },
  {
    "type": "Feature",
    "geometry": {
       "type": "Point",
       "coordinates":  [ 121.549909,24.898988 ]
    },
    "properties": {
    "排序":77,
    "流域":"淡水河",
    "水位站":"上龜山橋",
    "水情時間":"05-31 13:00",
    "目前水位":64.8,
    "一級警戒值":62.4,
    "二級警戒值":"60.5",
    "三級警戒值":"--",
    "警戒狀態":"一級警戒",
    "place_name":"231台湾新店區上龜山橋",
    "city":"metrotaipei",
    "district":"新店區"
    }
  },
  {
    "type": "Feature",
    "geometry": {
       "type": "Point",
       "coordinates":  [ 121.549385,24.922586 ]
    },
    "properties": {
    "排序":82,
    "流域":"淡水河",
    "水位站":"屈尺",
    "水情時間":"05-31 13:00",
    "目前水位":48.99,
    "一級警戒值":50.5,
    "二級警戒值":"--",
    "三級警戒值":"--",
    "警戒狀態":"未達警戒",
    "place_name":"台湾新北市新店區屈尺",
    "city":"metrotaipei",
    "district":"新店區"
    }
  },
  {
    "type": "Feature",
    "geometry": {
       "type": "Point",
       "coordinates":  [ 121.45714,24.988997 ]
    },
    "properties": {
    "排序":84,
    "流域":"淡水河",
    "水位站":"廣興",
    "水情時間":"05-31 13:00",
    "目前水位":43.58,
    "一級警戒值":46,
    "二級警戒值":"--",
    "三級警戒值":"--",
    "警戒狀態":"未達警戒",
    "place_name":"台湾新北市土城區廣興",
    "city":"metrotaipei",
    "district":"土城區"
    }
  },
  {
    "type": "Feature",
    "geometry": {
       "type": "Point",
       "coordinates":  [ 121.828795,25.08888 ]
    },
    "properties": {
    "排序":85,
    "流域":"淡水河",
    "水位站":"介壽橋(1)",
    "水情時間":"05-31 13:00",
    "目前水位":48.3,
    "一級警戒值":50.3,
    "二級警戒值":"47.3",
    "三級警戒值":"--",
    "警戒狀態":"二級警戒",
    "place_name":"224台湾瑞芳區介壽橋",
    "city":"metrotaipei",
    "district":"瑞芳區"
    }
  },
  {
    "type": "Feature",
    "geometry": {
       "type": "Point",
       "coordinates":  [ 121.416013,24.926296 ]
    },
    "properties": {
    "排序":94,
    "流域":"淡水河",
    "水位站":"橫溪海山橋",
    "水情時間":"05-31 13:00",
    "目前水位":34.8,
    "一級警戒值":35.6,
    "二級警戒值":"34.3",
    "三級警戒值":"--",
    "警戒狀態":"二級警戒",
    "place_name":"237台湾三峽區海山橋",
    "city":"metrotaipei",
    "district":"三峽區"
    }
  },
  {
    "type": "Feature",
    "geometry": {
       "type": "Point",
       "coordinates":  [ 121.354285,24.943697 ]
    },
    "properties": {
    "排序":96,
    "流域":"淡水河",
    "水位站":"三鶯橋",
    "水情時間":"05-31 13:00",
    "目前水位":43.8,
    "一級警戒值":44.6,
    "二級警戒值":"43.6",
    "三級警戒值":"--",
    "警戒狀態":"二級警戒",
    "place_name":"239台湾鶯歌區三鶯大橋",
    "city":"metrotaipei",
    "district":"鶯歌區"
    }
  },
  {
    "type": "Feature",
    "geometry": {
       "type": "Point",
       "coordinates":  [ 121.3693,24.932821 ]
    },
    "properties": {
    "排序":98,
    "流域":"淡水河",
    "水位站":"三峽(2)",
    "水情時間":"05-31 13:00",
    "目前水位":31.8,
    "一級警戒值":32.5,
    "二級警戒值":"31.3",
    "三級警戒值":"--",
    "警戒狀態":"二級警戒",
    "place_name":"台湾新北市三峽區三峽",
    "city":"metrotaipei",
    "district":"三峽區"
    }
  },
  {
    "type": "Feature",
    "geometry": {
       "type": "Point",
       "coordinates":  [ 121.397586,24.935337 ]
    },
    "properties": {
    "排序":118,
    "流域":"淡水河",
    "水位站":"橫溪",
    "水情時間":"05-31 13:00",
    "目前水位":18.69,
    "一級警戒值":25,
    "二級警戒值":"--",
    "三級警戒值":"--",
    "警戒狀態":"未達警戒",
    "place_name":"237台湾三峽區橫溪路",
    "city":"metrotaipei",
    "district":"三峽區"
    }
  },
  {
    "type": "Feature",
    "geometry": {
       "type": "Point",
       "coordinates":  [ 121.394004,24.967843 ]
    },
    "properties": {
    "排序":126,
    "流域":"淡水河",
    "水位站":"柑園橋",
    "水情時間":"05-31 13:00",
    "目前水位":13.02,
    "一級警戒值":21.3,
    "二級警戒值":"18.9",
    "三級警戒值":"--",
    "警戒狀態":"未達警戒",
    "place_name":"238台湾樹林區柑園橋",
    "city":"metrotaipei",
    "district":"樹林區"
    }
  },
  {
    "type": "Feature",
    "geometry": {
       "type": "Point",
       "coordinates":  [ 121.53453,24.959278 ]
    },
    "properties": {
    "排序":128,
    "流域":"淡水河",
    "水位站":"碧潭橋",
    "水情時間":"05-31 13:00",
    "目前水位":12.57,
    "一級警戒值":17.5,
    "二級警戒值":"15.8",
    "三級警戒值":"--",
    "警戒狀態":"未達警戒",
    "place_name":"231台湾新店區碧潭橋",
    "city":"metrotaipei",
    "district":"新店區"
    }
  },
  {
    "type": "Feature",
    "geometry": {
       "type": "Point",
       "coordinates":  [ 121.547884,24.976589 ]
    },
    "properties": {
    "排序":143,
    "流域":"淡水河",
    "水位站":"寶橋",
    "水情時間":"05-31 13:00",
    "目前水位":12.5,
    "一級警戒值":18,
    "二級警戒值":"15",
    "三級警戒值":"11.6",
    "警戒狀態":"三級警戒",
    "place_name":"231台湾新店區寶橋路",
    "city":"metrotaipei",
    "district":"新店區"
    }
  },
  {
    "type": "Feature",
    "geometry": {
       "type": "Point",
       "coordinates":  [ 121.4095,24.960053 ]
    },
    "properties": {
    "排序":145,
    "流域":"淡水河",
    "水位站":"柑城橋",
    "水情時間":"05-31 13:00",
    "目前水位":15.1,
    "一級警戒值":17.6,
    "二級警戒值":"15.8",
    "三級警戒值":"14",
    "警戒狀態":"三級警戒",
    "place_name":"238台湾樹林區柑城橋",
    "city":"metrotaipei",
    "district":"樹林區"
    }
  },
  {
    "type": "Feature",
    "geometry": {
       "type": "Point",
       "coordinates":  [ 121.52431,25.004147 ]
    },
    "properties": {
    "排序":159,
    "流域":"淡水河",
    "水位站":"秀朗",
    "水情時間":"05-31 13:00",
    "目前水位":7.2,
    "一級警戒值":11.3,
    "二級警戒值":"9.1",
    "三級警戒值":"5.9",
    "警戒狀態":"三級警戒",
    "place_name":"台湾新北市永和區秀朗",
    "city":"metrotaipei",
    "district":"永和區"
    }
  },
  {
    "type": "Feature",
    "geometry": {
       "type": "Point",
       "coordinates":  [ 121.629338,25.226471 ]
    },
    "properties": {
    "排序":160,
    "流域":"磺溪",
    "水位站":"新磺溪橋",
    "水情時間":"05-31 13:00",
    "目前水位":2.12,
    "一級警戒值":5.8,
    "二級警戒值":"4.6",
    "三級警戒值":"--",
    "警戒狀態":"未達警戒",
    "place_name":"208台湾金山區新磺溪橋",
    "city":"metrotaipei",
    "district":"金山區"
    }
  },
  {
    "type": "Feature",
    "geometry": {
       "type": "Point",
       "coordinates":  [ 121.655143,25.06903 ]
    },
    "properties": {
    "排序":168,
    "流域":"淡水河",
    "水位站":"江北橋",
    "水情時間":"05-31 13:00",
    "目前水位":1.46,
    "一級警戒值":12.7,
    "二級警戒值":"9.7",
    "三級警戒值":"--",
    "警戒狀態":"未達警戒",
    "place_name":"221台湾汐止區江北橋",
    "city":"metrotaipei",
    "district":"汐止區"
    }
  },
  {
    "type": "Feature",
    "geometry": {
       "type": "Point",
       "coordinates":  [ 121.814975,25.022025 ]
    },
    "properties": {
    "排序":170,
    "流域":"淡水河",
    "水位站":"土地公鼻",
    "水情時間":"05-31 13:00",
    "目前水位":2.8,
    "一級警戒值":5,
    "二級警戒值":"3.1",
    "三級警戒值":"2.1",
    "警戒狀態":"三級警戒",
    "place_name":"227台湾雙溪區基福公路",
    "city":"metrotaipei",
    "district":"雙溪區"
    }
  },
  {
    "type": "Feature",
    "geometry": {
       "type": "Point",
       "coordinates":  [ 121.432413,24.97788 ]
    },
    "properties": {
    "排序":172,
    "流域":"淡水河",
    "水位站":"城林橋",
    "水情時間":"05-31 13:05",
    "目前水位":1.3,
    "一級警戒值":15.3,
    "二級警戒值":"13",
    "三級警戒值":"--",
    "警戒狀態":"未達警戒",
    "place_name":"220台湾板橋區城林橋",
    "city":"metrotaipei",
    "district":"板橋區"
    }
  },
  {
    "type": "Feature",
    "geometry": {
       "type": "Point",
       "coordinates":  [ 121.456245,25.028913 ]
    },
    "properties": {
    "排序":174,
    "流域":"淡水河",
    "水位站":"新海大橋",
    "水情時間":"05-31 13:00",
    "目前水位":5.7,
    "一級警戒值":10.2,
    "二級警戒值":"7.7",
    "三級警戒值":"2.8",
    "警戒狀態":"三級警戒",
    "place_name":"台湾新北市板橋區新海",
    "city":"metrotaipei",
    "district":"板橋區"
    }
  },
  {
    "type": "Feature",
    "geometry": {
       "type": "Point",
       "coordinates":  [ 121.515637,25.01912 ]
    },
    "properties": {
    "排序":179,
    "流域":"淡水河",
    "水位站":"中正橋",
    "水情時間":"05-31 13:00",
    "目前水位":1.1,
    "一級警戒值":10.5,
    "二級警戒值":"8.3",
    "三級警戒值":"5.4",
    "警戒狀態":"未達警戒",
    "place_name":"234台湾永和區中正橋",
    "city":"metrotaipei",
    "district":"永和區"
    }
  },
  {
    "type": "Feature",
    "geometry": {
       "type": "Point",
       "coordinates":  [ 121.635927,25.063534 ]
    },
    "properties": {
    "排序":191,
    "流域":"淡水河",
    "水位站":"社后橋",
    "水情時間":"05-31 13:00",
    "目前水位":0.82,
    "一級警戒值":11.5,
    "二級警戒值":"8.5",
    "三級警戒值":"--",
    "警戒狀態":"未達警戒",
    "place_name":"221台湾汐止區新社后橋",
    "city":"metrotaipei",
    "district":"汐止區"
    }
  },
  {
    "type": "Feature",
    "geometry": {
       "type": "Point",
       "coordinates":  [  121.458841013201, 25.113089865592933 ]
    },
    "properties": {
    "排序":192,
    "流域":"淡水河",
    "水位站":"獅子頭",
    "水情時間":"05-31 13:00",
    "目前水位":0.64,
    "一級警戒值":4.5,
    "二級警戒值":"3",
    "三級警戒值":"--",
    "警戒狀態":"未達警戒",
    "place_name":" 新北市五股區",
    "city":" metrotaipei",
    "district":" 五股區"
    }
  },
  {
    "type": "Feature",
    "geometry": {
       "type": "Point",
       "coordinates":  [ 121.45540914335739, 25.102404434680842 ]
    },
    "properties": {
    "排序":193,
    "流域":"淡水河",
    "水位站":"入口堰",
    "水情時間":"05-31 13:00",
    "目前水位":0.43,
    "一級警戒值":3.8,
    "二級警戒值":"3.5",
    "三級警戒值":"3.3",
    "警戒狀態":"未達警戒",
    "place_name":" 新北市五股區",
    "city":" metrotaipei",
    "district":" 五股區"
    }
  },
  {
    "type": "Feature",
    "geometry": {
       "type": "Point",
       "coordinates":  [ 121.512596,25.088318 ]
    },
    "properties": {
    "排序":175,
    "流域":"淡水河",
    "水位站":"百齡橋",
    "水情時間":"05-31 13:00",
    "目前水位":1.19,
    "一級警戒值":8.8,
    "二級警戒值":"7",
    "三級警戒值":"--",
    "警戒狀態":"未達警戒",
    "place_name":"111台湾臺北市士林區百齡橋",
    "city":"taipei",
    "district":"士林區"
    }
  },
  {
    "type": "Feature",
    "geometry": {
       "type": "Point",
       "coordinates":  [ 121.524517,25.073725 ]
    },
    "properties": {
    "排序":176,
    "流域":"淡水河",
    "水位站":"中山橋",
    "水情時間":"05-31 13:00",
    "目前水位":1.15,
    "一級警戒值":9.2,
    "二級警戒值":"7.1",
    "三級警戒值":"--",
    "警戒狀態":"未達警戒",
    "place_name":"104台湾臺北市中山區中山橋",
    "city":"taipei",
    "district":"中山區"
    }
  },
  {
    "type": "Feature",
    "geometry": {
       "type": "Point",
       "coordinates":  [ 121.54447,25.076712 ]
    },
    "properties": {
    "排序":183,
    "流域":"淡水河",
    "水位站":"大直橋",
    "水情時間":"05-31 13:00",
    "目前水位":4.5,
    "一級警戒值":9.8,
    "二級警戒值":"8",
    "三級警戒值":"3.3",
    "警戒狀態":"三級警戒",
    "place_name":"104台湾臺北市中山區大直橋",
    "city":"taipei",
    "district":"中山區"
    }
  },
  {
    "type": "Feature",
    "geometry": {
       "type": "Point",
       "coordinates":  [ 121.508965,25.063312 ]
    },
    "properties": {
    "排序":184,
    "流域":"淡水河",
    "水位站":"台北橋",
    "水情時間":"05-31 13:00",
    "目前水位":7.6,
    "一級警戒值":8.5,
    "二級警戒值":"6.7",
    "三級警戒值":"2.2",
    "警戒狀態":"二級警戒",
    "place_name":"103台湾臺北市大同區台北大橋",
    "city":"taipei",
    "district":"大同區"
    }
  },
  {
    "type": "Feature",
    "geometry": {
       "type": "Point",
       "coordinates":  [ 121.611655,25.063403 ]
    },
    "properties": {
    "排序":187,
    "流域":"淡水河",
    "水位站":"南湖大橋",
    "水情時間":"05-31 13:00",
    "目前水位":12.4,
    "一級警戒值":11.6,
    "二級警戒值":"9.8",
    "三級警戒值":"6.4",
    "警戒狀態":"一級警戒",
    "place_name":"114台湾臺北市內湖區南湖大橋",
    "city":"taipei",
    "district":"內湖區"
    }
  }
]
}