{
   "type": "FeatureCollection",
   "features": [
  {
    "type": "Feature",
    "geometry": {
       "type": "Point",
       "coordinates":  [ 121.512596,25.088318 ]
    },
    "properties": {
    "排序":175,
    "流域":"淡水河",
    "水位站":"百齡橋",
    "水情時間":"05-31 13:00",
    "目前水位":1.19,
    "一級警戒值":8.8,
    "二級警戒值":7,
    "三級警戒值":"--",
    "警戒狀態":"未達警戒",
    "place_name":"111台湾臺北市士林區百齡橋",
    "city":"taipei",
    "district":"士林區"
    }
  },
  {
    "type": "Feature",
    "geometry": {
       "type": "Point",
       "coordinates":  [ 121.524517,25.073725 ]
    },
    "properties": {
    "排序":176,
    "流域":"淡水河",
    "水位站":"中山橋",
    "水情時間":"05-31 13:00",
    "目前水位":1.15,
    "一級警戒值":9.2,
    "二級警戒值":7.1,
    "三級警戒值":"--",
    "警戒狀態":"未達警戒",
    "place_name":"104台湾臺北市中山區中山橋",
    "city":"taipei",
    "district":"中山區"
    }
  },
  {
    "type": "Feature",
    "geometry": {
       "type": "Point",
       "coordinates":  [ 121.54447,25.076712 ]
    },
    "properties": {
    "排序":183,
    "流域":"淡水河",
    "水位站":"大直橋",
    "水情時間":"05-31 13:00",
    "目前水位":4.5,
    "一級警戒值":9.8,
    "二級警戒值":8,
    "三級警戒值":"3.3",
    "警戒狀態":"三級警戒",
    "place_name":"104台湾臺北市中山區大直橋",
    "city":"taipei",
    "district":"中山區"
    }
  },
  {
    "type": "Feature",
    "geometry": {
       "type": "Point",
       "coordinates":  [ 121.611655,25.063403 ]
    },
    "properties": {
    "排序":187,
    "流域":"淡水河",
    "水位站":"南湖大橋",
    "水情時間":"05-31 13:00",
    "目前水位":12.4,
    "一級警戒值":11.6,
    "二級警戒值":9.8,
    "三級警戒值":"6.4",
    "警戒狀態":"一級警戒",
    "place_name":"114台湾臺北市內湖區南湖大橋",
    "city":"taipei",
    "district":"內湖區"
    }
  }
]
}